{"type": "FeatureCollection", "features": [{"type": "Feature", "properties": {}, "geometry": {"type": "Polygon", "coordinates": [[[-124.41583523199986, 47.725587044], [-124.42275956899991, 47.7418887390001], [-124.43541419199988, 47.74445221600013], [-124.44676673099987, 47.75039297100005], [-124.45588131399985, 47.7617862000001], [-124.47656568999986, 47.77825460900007], [-124.48346920499986, 47.81293366099999], [-124.54161217999992, 47.83433114900012], [-124.5562646119999, 47.85368210200011], [-124.5679825509999, 47.86969635600005], [-124.59313293199995, 47.876199526000164], [-124.60950710599992, 47.874855198000034], [-124.63813010599988, 47.90786426100007], [-124.6561580069999, 47.95400625200011], [-124.67198645699993, 47.99070872600012], [-124.68321692599993, 48.02781810100015], [-124.6938469409999, 48.07453032800012], [-124.6894425119999, 48.100165106000105], [-124.72297115799985, 48.15009186400013], [-124.73460723799992, 48.17040360400014], [-124.71923587799988, 48.176295765000134], [-124.70006628599988, 48.19185865300014], [-124.6894425119999, 48.21344635600019], [-124.68976803299992, 48.218898830000114], [-124.69493567599993, 48.225572007000096], [-124.7055165119999, 48.245979080000154], [-124.7036272599999, 48.24985458600008], [-124.68913306799988, 48.252508009999985], [-124.68247849099994, 48.263499821000124], [-124.68321692599993, 48.2847354190001], [-124.67983964799991, 48.29368724200012], [-124.66490637899997, 48.309068101000065], [-124.66148841099997, 48.319525458000044], [-124.67053656399987, 48.324168713], [-124.66967764999995, 48.33318756000017], [-124.67841909999989, 48.33508434200016], [-124.6891087929999, 48.33761605800012], [-124.70281518699996, 48.34720208900012], [-124.71825110599993, 48.35736725500007], [-124.73025557199993, 48.37157828700015], [-124.72752846799989, 48.38772774000009], [-124.69651797099992, 48.391086444999985], [-124.66157605899993, 48.38603691200015], [-124.63815999099985, 48.38300116800016], [-124.61955495499986, 48.368915448], [-124.60797431099994, 48.36632591200015], [-124.59336672599993, 48.37485614600001], [-124.57489390699995, 48.3704076250001], [-124.5320723399999, 48.34990991900017], [-124.45799719999987, 48.31683991100007], [-124.39921398699997, 48.29357992500013], [-124.34683183499989, 48.281073309000135], [-124.33763587099992, 48.277044989000075], [-124.29634240099992, 48.26154523500006], [-124.2740068379999, 48.25705125800002], [-124.25084625299992, 48.26289908800007], [-124.22765051999995, 48.25853099200006], [-124.15980254999992, 48.23266201700008], [-124.11141428099991, 48.21593108000016], [-124.09984094299996, 48.200472681], [-124.05018191899987, 48.17726302600005], [-123.99707727499987, 48.172693967000015], [-123.97099138599988, 48.16559843600001], [-123.94394835799991, 48.16554333700017], [-123.91883313099994, 48.16227674000007], [-123.87342522299987, 48.16155177800013], [-123.86188353299988, 48.156394246000076], [-123.8183392319999, 48.16077541700011], [-123.7888891269999, 48.15314362200013], [-123.74202050699985, 48.15991492100014], [-123.70034372899994, 48.164910696000135], [-123.64169479499988, 48.15119169200011], [-123.6338728959999, 48.14144709900003], [-123.58459962099992, 48.135416810000066], [-123.56703737599989, 48.14693419300008], [-123.5523934569999, 48.151362185000096], [-123.53502843099992, 48.1454647500002], [-123.52361692399985, 48.13509975000011], [-123.5054825509999, 48.13263580900019], [-123.47560609099989, 48.13360736100017], [-123.43589582599988, 48.14240718200017], [-123.4185062529999, 48.14230297300014], [-123.40502183599993, 48.1389983710001], [-123.42630174399991, 48.13719214900013], [-123.44083569399996, 48.134055426000145], [-123.45342862999989, 48.1315486500001], [-123.44966062699987, 48.125108759], [-123.42173417099991, 48.11782789800003], [-123.35799863999988, 48.11742233700005], [-123.32232617899993, 48.114613251000065], [-123.2874612439999, 48.118216558000114], [-123.24692672299992, 48.11533374600009], [-123.22362219999992, 48.12201569200013], [-123.17060080399989, 48.16437427900016], [-123.15003329499987, 48.17710225300007], [-123.1082505149999, 48.1838376390001], [-123.1180243349999, 48.17940744400002], [-123.13072170199986, 48.17371189300013], [-123.14447123699983, 48.1635082630001], [-123.16128495999995, 48.15192291900013], [-123.14571375499987, 48.1512699300001], [-123.11180940699984, 48.1490275030001], [-123.08918209499984, 48.12848541900016], [-123.0630291479999, 48.11760338500011], [-123.04045427199988, 48.08511328700013], [-123.0452774729999, 48.059719143000166], [-123.0296931629999, 48.04523346600013], [-123.00788326699985, 48.038560289000145], [-122.99681555899991, 48.03864166900013], [-123.00572669199994, 48.07868073100008], [-122.99913489499997, 48.091742255000156], [-122.95693925699993, 48.097479559000135], [-122.9410701159999, 48.09788646000004], [-122.92747962099986, 48.09511953300017], [-122.92174231699988, 48.086127020000134], [-122.91877193899988, 48.070217190000136], [-122.91079667899992, 48.066107489000075], [-122.89972896999988, 48.06622955900016], [-122.88695227799994, 48.06256745000002], [-122.87254798099987, 48.049750067000076], [-122.8572891919999, 48.029527085000154], [-122.85338294199991, 48.010443426999984], [-122.8732804029999, 48.00112539300011], [-122.8732804029999, 47.99371979400004], [-122.85435950399997, 47.995266018], [-122.84137936099988, 48.0055606140001], [-122.8248591789999, 48.03522370000013], [-122.83690344999992, 48.04987213700005], [-122.87706458199992, 48.07965729400016], [-122.88166256399987, 48.091742255000156], [-122.87775631399987, 48.106634833000015], [-122.86831620999995, 48.119289455000086], [-122.85627193899984, 48.12457916900016], [-122.82384192599994, 48.131089585000154], [-122.79491126199993, 48.14118073100002], [-122.77017167899996, 48.14109935100004], [-122.75039628799993, 48.11717357000006], [-122.75987708199995, 48.11220937700003], [-122.78453528599994, 48.102932033000144], [-122.79137122299996, 48.09674713700019], [-122.79198157499991, 48.082912502000084], [-122.78449459499986, 48.07306549700016], [-122.77538001199986, 48.06557851800011], [-122.7709041009999, 48.059149481000105], [-122.76463782499985, 48.04462311400016], [-122.7224828769999, 47.99371979400004], [-122.71434485599988, 47.98725006700013], [-122.69538326699987, 47.97894928600016], [-122.6883438789999, 47.97321198100016], [-122.68565833199992, 47.96539948100019], [-122.68252519399994, 47.94407786700003], [-122.67808997299997, 47.93569570500017], [-122.62621008999989, 47.88955312700014], [-122.6201065749999, 47.87763092700001], [-122.62824459499991, 47.873521226000065], [-122.65807044199991, 47.87250397300008], [-122.66783606699994, 47.870794989000075], [-122.67642167899996, 47.8621279970001], [-122.68390865799984, 47.84320709800008], [-122.69204667899994, 47.832586981000134], [-122.73639889199988, 47.794419664000145], [-122.75039628799993, 47.77456289300014], [-122.76866614499991, 47.73798248900013], [-122.77521725199989, 47.71881745000016], [-122.77769934799991, 47.70254140800003], [-122.78107662699993, 47.69204336100006], [-122.78929602799994, 47.684515692000105], [-122.80036373599988, 47.67987702000008], [-122.81187903599991, 47.67837148600012], [-122.82848059799996, 47.683172919000015], [-122.8292130199999, 47.69407786700009], [-122.81802324099989, 47.71312083500007], [-122.79979407499991, 47.77728913000013], [-122.7989395819999, 47.8067080750001], [-122.80565344999985, 47.8434512390001], [-122.81729081899995, 47.83026764500008], [-122.81847083199989, 47.810858466000155], [-122.82160396999987, 47.79242584800011], [-122.8391820949999, 47.78204987200013], [-122.8404027989999, 47.80231354400004], [-122.84679114499993, 47.82029857000006], [-122.8564346999999, 47.826076565000136], [-122.86709550699993, 47.809271552000126], [-122.8663630849999, 47.79352448100016], [-122.85826575399997, 47.77545807500013], [-122.8391820949999, 47.746649481000105], [-122.86192786399992, 47.733343817000105], [-122.87621008999992, 47.71015045800007], [-122.88662675699992, 47.68813711100006], [-122.9039607409999, 47.67316315300013], [-122.9100235669999, 47.650091864000075], [-122.91803951699985, 47.644842841000155], [-122.9303279289999, 47.641994533000144], [-122.94176184799994, 47.634914455000086], [-123.0210668609999, 47.56565989800009], [-123.03294837099995, 47.54999420800013], [-123.06509355399992, 47.493394273000035], [-123.0803723909921, 47.479000000000006], [-124.34419466440238, 47.479000000000006], [-124.34869608499986, 47.499752570000055], [-124.35081946499987, 47.54682038000007], [-124.37488720099995, 47.60768812000015], [-124.38360637399991, 47.63601669700006], [-124.41078160799988, 47.68818354900009], [-124.41583523199986, 47.725587044]]]}}, {"type": "Feature", "properties": {}, "geometry": {"type": "Polygon", "coordinates": [[[-124.7996313139999, 49.4807803410001], [-124.79474850199983, 49.47256094000011], [-124.77257239499995, 49.46149323100016], [-124.7236221999999, 49.46507396000004], [-124.7019750639999, 49.45547109600014], [-124.69196529899992, 49.44920482000009], [-124.66812089799993, 49.44306061400013], [-124.65758216099997, 49.43838125200011], [-124.64244544199997, 49.4168154970001], [-124.63707434799991, 49.41107819200013], [-124.59601803299992, 49.391180731000134], [-124.54507402299991, 49.377183334999984], [-124.4453018869999, 49.36269765800003], [-124.38727779899992, 49.360663153000104], [-124.35997473899994, 49.35663483300013], [-124.33885657499992, 49.34589264500002], [-124.32900956899991, 49.33877187700014], [-124.3195694649999, 49.33490631700016], [-124.2084854809999, 49.30805084800008], [-124.19835364499994, 49.309149481000105], [-124.18541419199994, 49.31378815300005], [-124.17467200399993, 49.3148867860001], [-124.15916907499991, 49.31045156500002], [-124.10948645699992, 49.280096747000044], [-124.1267797519999, 49.274318752000084], [-124.16307532499991, 49.27167389500008], [-124.17837480399987, 49.26023997600012], [-124.1648656889999, 49.25486888200007], [-124.15168209499986, 49.25543854400013], [-124.12287350199992, 49.26023997600012], [-124.10855058499993, 49.25812409100013], [-124.08458411399988, 49.24872467700001], [-124.07135982999985, 49.246568101], [-124.00938880099997, 49.245917059000135], [-123.97769120999992, 49.24095286700009], [-123.95494544199988, 49.229193427000126], [-123.94981848899995, 49.22304922100014], [-123.9457901679999, 49.21523672100005], [-123.94627844999988, 49.20844147300011], [-123.96418209499984, 49.20307038000007], [-123.96214758999992, 49.19700755399998], [-123.95124264199984, 49.18451569200016], [-123.93077551999997, 49.143540757000125], [-123.91710364499993, 49.13491445500014], [-123.90453040299985, 49.133612372000044], [-123.88361568899988, 49.136704820000034], [-123.8416641919999, 49.127630927000126], [-123.82835852799988, 49.129950262000165], [-123.81338456899994, 49.11859772300002], [-123.8049210279999, 49.103989976], [-123.79784094999994, 49.087144273], [-123.78734290299987, 49.0690371770001], [-123.7569067049999, 49.04214101800011], [-123.75137285099989, 49.02798086100009], [-123.77375240799991, 49.02069733299999], [-123.76488196499987, 49.007879950000046], [-123.76089433499989, 48.99583567900012], [-123.76488196499987, 48.98753489800015], [-123.7798966139999, 48.98590729400013], [-123.79385331899995, 48.993475653000075], [-123.80410722599989, 49.00535716400003], [-123.81602942599993, 49.012681382000125], [-123.8351130849999, 49.00641510600008], [-123.8351130849999, 49.000189520000106], [-123.78734290299987, 48.96539948100016], [-123.73973548099988, 48.94285716400009], [-123.7327774729999, 48.93439362200013], [-123.71792558499993, 48.921535549000026], [-123.59382076699985, 48.836981512000165], [-123.57994544199995, 48.82160065300013], [-123.5918676419999, 48.81460195500017], [-123.59609941299992, 48.81142812700011], [-123.60049394399991, 48.80438873900013], [-123.6022843089999, 48.79730866100007], [-123.59870357999992, 48.794134833000015], [-123.59044348899992, 48.79547760600019], [-123.58250891799987, 48.79775625200017], [-123.57506262899989, 48.79824453300006], [-123.56826738199996, 48.794134833000015], [-123.56529700399994, 48.78091054900017], [-123.56655839799996, 48.76072825700004], [-123.57298743399987, 48.74624258], [-123.58503170499989, 48.749701239000075], [-123.5987849599999, 48.758449611000145], [-123.61758378799995, 48.76325104400016], [-123.63658606699995, 48.76386139500002], [-123.65078691299996, 48.75995514500002], [-123.65078691299996, 48.7531192080001], [-123.63158118399991, 48.74213288000004], [-123.56086178299988, 48.71214427300009], [-123.5519913399999, 48.70538971600013], [-123.53087317599991, 48.68496328300017], [-123.52668209499988, 48.67804596600007], [-123.52993730399993, 48.664740302000155], [-123.53697669199991, 48.65761953300009], [-123.54234778599995, 48.65029531500008], [-123.54092363199989, 48.636460679000095], [-123.53465735599994, 48.62811920800013], [-123.5252986319999, 48.62067291900013], [-123.51695716099994, 48.61082591400003], [-123.5136612619999, 48.595445054000095], [-123.5175675119999, 48.58038971600007], [-123.52586829299987, 48.57208893400019], [-123.5348201159999, 48.56537506700005], [-123.54092363199989, 48.55451080900016], [-123.53547115799986, 48.54010651200019], [-123.51357988199992, 48.547552801999984], [-123.47203528599994, 48.5750186220001], [-123.47850501199993, 48.59080638200007], [-123.47500566299995, 48.621242580000114], [-123.47887122299994, 48.636460679000095], [-123.43732662699996, 48.650091864000046], [-123.4617813789999, 48.66323476800011], [-123.4717911449999, 48.67243073100016], [-123.47203528599994, 48.68488190300019], [-123.46300208199992, 48.68964264500008], [-123.44603430899986, 48.692084052000126], [-123.42829342399995, 48.692450262000136], [-123.41681881399991, 48.69110748900013], [-123.40538489499995, 48.68634674700013], [-123.39924068899988, 48.681545315000164], [-123.39679928299985, 48.67389557500013], [-123.39635169199994, 48.66095612200013], [-123.39415442599996, 48.65704987200013], [-123.39028886599995, 48.646185614000046], [-123.38866126199993, 48.634833075000074], [-123.39321855399987, 48.62962474200009], [-123.39004472599991, 48.620428778000104], [-123.35533606699994, 48.560736395000106], [-123.34577389199985, 48.52338288000007], [-123.33706620999988, 48.5080427100001], [-123.32119706899994, 48.49583567900012], [-123.30223548099993, 48.484198309000135], [-123.28718014199991, 48.468329169000015], [-123.28062903599992, 48.448391018000024], [-123.28709876199993, 48.42413971600013], [-123.30247962099988, 48.4142927100001], [-123.33039303299991, 48.40477122600012], [-123.35704505099994, 48.40058014499999], [-123.43732662699996, 48.44464752800016], [-123.45335852799987, 48.43357982000015], [-123.48021399599993, 48.392320054000095], [-123.49624589799993, 48.38320547100011], [-123.5110977859999, 48.38051992400011], [-123.51512610599987, 48.37376536700009], [-123.51569576699984, 48.36473216400017], [-123.51984615799988, 48.35529205900016], [-123.5279027989999, 48.348334051999984], [-123.54548092399993, 48.336574611], [-123.55459550699993, 48.32794830900019], [-123.55060787699995, 48.313055731000134], [-123.57217363199996, 48.30609772300005], [-123.59528561099991, 48.31004466400012], [-123.59557044199994, 48.32794830900019], [-123.61245683499993, 48.326849677000126], [-123.63996334499987, 48.31679922100008], [-123.65392005099994, 48.314276434000135], [-123.66779537699993, 48.31761302300009], [-123.68504798099994, 48.332180080000114], [-123.70539303299984, 48.33803945500006], [-123.73375403599997, 48.350775458000015], [-123.78062903599992, 48.3628604190001], [-123.84117591099991, 48.361883856000134], [-123.89077714799993, 48.36688873899999], [-124.13149980399992, 48.433498440000164], [-124.38914954299989, 48.517971096000025], [-124.4142146479999, 48.51976146000001], [-124.4378962879999, 48.52553945500014], [-124.42967688699991, 48.538519598000164], [-124.40778561099988, 48.552394924000055], [-124.39069576699984, 48.560736395000106], [-124.40143795499985, 48.56525299700007], [-124.43468176999995, 48.56915924700007], [-124.4453018869999, 48.56818268400019], [-124.45726477799992, 48.56273021000007], [-124.46751868399986, 48.555975653000104], [-124.48566646999986, 48.54022858300007], [-124.49356035099993, 48.54214101800011], [-124.5135798819999, 48.54706452], [-124.66539466099995, 48.573228257000125], [-124.73119055899993, 48.596380926999984], [-124.7693578769999, 48.61505768400005], [-124.79991614499993, 48.639227606000134], [-124.81623287699986, 48.64712148600003], [-124.9204, 48.67822207177787], [-124.9204, 48.971798743895974], [-124.91828365799985, 48.972235419000185], [-124.88267981699988, 48.990545966000155], [-124.84699459499984, 49.02045319200013], [-124.81944739499991, 49.058010158000144], [-124.80842037699986, 49.099188544000015], [-124.8008927069999, 49.11676666900004], [-124.78697669199993, 49.133490301999984], [-124.77940833199997, 49.15204498899999], [-124.79881751199989, 49.188788153000075], [-124.80842037699986, 49.246568101], [-124.81460527299993, 49.24286530200007], [-124.82062740799985, 49.237982489000075], [-124.8255509109999, 49.23216380400004], [-124.82892818899991, 49.225490627000084], [-124.8285212879999, 49.21771881699999], [-124.82201087099992, 49.181382554000095], [-124.82201087099992, 49.14012278900012], [-124.82803300699992, 49.11985911700003], [-124.84203040299988, 49.103908596000025], [-124.85802161399988, 49.08958567900004], [-124.86986243399994, 49.07465241100007], [-124.87922115799988, 49.032294012000165], [-124.88801021999986, 49.01398346600013], [-124.90770423099988, 49.00641510600008], [-124.9204, 49.00373590300536], [-124.9204, 49.6322854465505], [-124.91828365799985, 49.63080475500007], [-124.90949459499987, 49.621323959999984], [-124.83804277299991, 49.51727936400013], [-124.81786048099988, 49.51178620000013], [-124.80842037699986, 49.506659247000016], [-124.80459550699995, 49.4997012390001], [-124.7996313139999, 49.4807803410001]]]}}, {"type": "Feature", "properties": {}, "geometry": {"type": "Polygon", "coordinates": [[[-123.68276933499993, 48.97886790600006], [-123.6875300769999, 48.979396877000056], [-123.69310462099992, 48.98383209800005], [-123.70063229099992, 48.99587636900009], [-123.70653235599991, 49.01211172100005], [-123.70384680899991, 49.01719798400006], [-123.69709225199995, 49.013332424000055], [-123.69298255099994, 49.01316966400009], [-123.69033769399994, 49.01699453300006], [-123.68594316299993, 49.019232489000046], [-123.67983964799993, 49.01784902600008], [-123.65684973899994, 48.99673086100006], [-123.6545710929999, 48.991074937000064], [-123.65615800699993, 48.98733144700009], [-123.67239335799991, 48.983628648000035], [-123.67430579299992, 48.98106517100007], [-123.67149817599994, 48.97569407800006], [-123.67105058499993, 48.97097402600008], [-123.6738988919999, 48.96893952000005], [-123.67568925699993, 48.97085195500006], [-123.67817135299993, 48.97573476800005], [-123.68276933499993, 48.97886790600006]]]}}, {"type": "Feature", "properties": {}, "geometry": {"type": "Polygon", "coordinates": [[[-123.77668209499984, 49.13328685100012], [-123.84284420499992, 49.15102773600012], [-123.8619685539999, 49.16356028900012], [-123.86742102799992, 49.174383856000105], [-123.86607825399994, 49.17942942900012], [-123.86803137899989, 49.18333567900004], [-123.87047278599992, 49.18549225500004], [-123.86978105399989, 49.19049713700008], [-123.86343339799996, 49.196275132000125], [-123.8338516919999, 49.20115794500012], [-123.82396399599989, 49.19867584799999], [-123.8178604809999, 49.19061920800013], [-123.80931555899988, 49.18414948100005], [-123.76862545499989, 49.16901276200005], [-123.72126217399995, 49.160793361000145], [-123.70441646999986, 49.155991929000066], [-123.69701087099988, 49.14769114800009], [-123.69709225199995, 49.13711172100014], [-123.70567786399995, 49.13287995000002], [-123.71174068899987, 49.133856512000165], [-123.71812903599988, 49.13320547100014], [-123.7323298819999, 49.13031647300011], [-123.74950110599993, 49.12885163000013], [-123.77668209499984, 49.13328685100012]]]}}, {"type": "Feature", "properties": {}, "geometry": {"type": "Polygon", "coordinates": [[[-124.17174231699991, 49.46426015800003], [-124.17170162699992, 49.45473867400011], [-124.18618730399996, 49.44700755400012], [-124.23241126199987, 49.45856354400004], [-124.24815833199992, 49.45844147300008], [-124.25788326699987, 49.45612213700011], [-124.26846269399992, 49.45551178600013], [-124.29702714799991, 49.457912502], [-124.31794186099988, 49.46295807500013], [-124.35228430899993, 49.474920966000155], [-124.36107337099989, 49.48004791900007], [-124.35773678299986, 49.48354726800014], [-124.35570227799992, 49.490383205000086], [-124.36522376199993, 49.49725983300007], [-124.37653561099991, 49.49994538000007], [-124.37905839799993, 49.50726959800008], [-124.37364661399988, 49.51528554900011], [-124.3648982409999, 49.52106354400016], [-124.35460364499988, 49.522406317000076], [-124.32917232999988, 49.51284414300008], [-124.32310950399997, 49.51203034100007], [-124.29588782499988, 49.51243724200006], [-124.28359941299992, 49.51048411700003], [-124.26895097599991, 49.5062930360001], [-124.2513321609999, 49.50429922100014], [-124.23216712099992, 49.499335028000104], [-124.17174231699991, 49.46426015800003]]]}}, {"type": "Feature", "properties": {}, "geometry": {"type": "Polygon", "coordinates": [[[-123.97435462099992, 49.46832916900007], [-123.97992916599992, 49.475856838000084], [-123.98106848899994, 49.48395416900007], [-123.98672441299993, 49.48582591400009], [-123.98643958199995, 49.48928457200009], [-123.98192298099991, 49.49258047100005], [-123.98232988199993, 49.49388255400004], [-123.9839574859999, 49.49909088700008], [-123.98302161399994, 49.50259023600006], [-123.98497473899994, 49.50372955900008], [-123.98355058499993, 49.50543854400007], [-123.98261471299992, 49.51003652600008], [-123.9817602199999, 49.50885651200008], [-123.98119055899991, 49.507920640000066], [-123.98013261599993, 49.507879950000074], [-123.9741511709999, 49.50690338700008], [-123.9624731109999, 49.498114325000074], [-123.95531165299991, 49.49115631700005], [-123.95697994699992, 49.48908112200007], [-123.95653235599991, 49.48647695500006], [-123.95596269399994, 49.484890041000085], [-123.95482337099992, 49.48228587400007], [-123.95189368399991, 49.47793203300006], [-123.9533992179999, 49.475897528000075], [-123.9543757799999, 49.473537502000056], [-123.95181230399993, 49.47117747600004], [-123.95274817599994, 49.47020091400009], [-123.9533992179999, 49.46877676000008], [-123.95181230399993, 49.46771881700005], [-123.95433508999992, 49.466498114000046], [-123.95897376199991, 49.462958075000074], [-123.96308346299992, 49.462144273000035], [-123.97435462099992, 49.46832916900007]]]}}, {"type": "Feature", "properties": {}, "geometry": {"type": "Polygon", "coordinates": [[[-124.65322831899988, 49.49599844000008], [-124.66291256399984, 49.49433014500016], [-124.67178300699989, 49.49721914300008], [-124.69127356699997, 49.509344794000185], [-124.70376542899989, 49.52118561400013], [-124.70250403599988, 49.537665106000134], [-124.68374589799991, 49.54926178600013], [-124.65514075399993, 49.547105210000154], [-124.60741126199989, 49.53091054900008], [-124.6004125639999, 49.527573959999984], [-124.59414628799995, 49.52163320500014], [-124.60484778599988, 49.52094147300011], [-124.62450110599993, 49.523423570000034], [-124.63560950399994, 49.51740143400011], [-124.64273027299991, 49.50429922100014], [-124.65322831899988, 49.49599844000008]]]}}, {"type": "Feature", "properties": {}, "geometry": {"type": "Polygon", "coordinates": [[[-124.84015865799992, 49.57758209800011], [-124.83604895699996, 49.59772370000013], [-124.8272192049999, 49.60297272300011], [-124.80333411399994, 49.584947007000096], [-124.79246985599985, 49.57973867400008], [-124.71646074099993, 49.499497789000145], [-124.70872962099993, 49.49701569200005], [-124.69416256399991, 49.490627346000025], [-124.69082597599989, 49.4828555360001], [-124.70201575399989, 49.47947825700001], [-124.70962480399993, 49.47996653900009], [-124.72223873599991, 49.48187897300005], [-124.74640865799991, 49.488470770000106], [-124.8254288399999, 49.540106512000165], [-124.8385310539999, 49.556586005000156], [-124.84015865799992, 49.57758209800011]]]}}, {"type": "Feature", "properties": {}, "geometry": {"type": "Polygon", "coordinates": [[[-124.14403235599991, 49.5296084660001], [-124.12315833199995, 49.49982330900019], [-124.14342200399996, 49.48932526200011], [-124.1622615229999, 49.49599844000008], [-124.19762122299991, 49.52094147300011], [-124.37840735599988, 49.60285065300013], [-124.4388321609999, 49.61188385600016], [-124.44172115799984, 49.6172549500001], [-124.43871008999992, 49.624090887000136], [-124.43907630099993, 49.63080475500007], [-124.46206620999992, 49.65375397300008], [-124.47175045499988, 49.66950104400013], [-124.47256425699989, 49.67177969000011], [-124.47874915299987, 49.673163153000075], [-124.48525956899995, 49.672919012000136], [-124.49307206899994, 49.67177969000011], [-124.51707923099988, 49.68341705900011], [-124.51732337099993, 49.685451565000136], [-124.53404700399996, 49.68964264500016], [-124.57213294199994, 49.70844147300002], [-124.61440995999996, 49.71649811400013], [-124.6332087879999, 49.72573476800011], [-124.66441809799989, 49.7468936220001], [-124.65640214799994, 49.75421784100013], [-124.65172278599992, 49.76154205900011], [-124.65168209499984, 49.768255926999984], [-124.65758216099997, 49.77415599200009], [-124.65758216099997, 49.78099192900012], [-124.65428626199993, 49.78799062700011], [-124.65469316299993, 49.792303778000104], [-124.65758216099997, 49.80149974200009], [-124.64513098899995, 49.802313544000185], [-124.63263912699985, 49.80166250200014], [-124.62051347599994, 49.79930247600009], [-124.60920162699988, 49.794623114000075], [-124.59703528599988, 49.78563060100015], [-124.57603919199994, 49.761948960000126], [-124.5620011059999, 49.753729559000135], [-124.52106686099987, 49.7468936220001], [-124.48778235599987, 49.734198309000135], [-124.3912654289999, 49.72003815300013], [-124.34788977799994, 49.70416901200011], [-124.32921301999995, 49.6817080750001], [-124.32274329299986, 49.67080312700003], [-124.29409745999989, 49.649888414000145], [-124.28766842399997, 49.64044830900005], [-124.28246008999989, 49.62783437700017], [-124.26976477799992, 49.61587148600012], [-124.17320716099997, 49.55414459800011], [-124.14403235599991, 49.5296084660001]]]}}, {"type": "Feature", "properties": {}, "geometry": {"type": "Polygon", "coordinates": [[[-124.9204, 49.7508063169218], [-124.88206946499992, 49.7249209660001], [-124.87291419199994, 49.71259186400013], [-124.86986243399994, 49.695054429000095], [-124.87584387899996, 49.677435614000075], [-124.89098059799996, 49.672064520000134], [-124.9204, 49.6766767605424], [-124.9204, 49.7508063169218]]]}}, {"type": "Feature", "properties": {}, "geometry": {"type": "Polygon", "coordinates": [[[-124.10948645699992, 49.67796458500007], [-124.13638261599989, 49.65656159100013], [-124.16368567599996, 49.65981679900017], [-124.18773352799991, 49.67894114800012], [-124.2050675119999, 49.70526764500005], [-124.14561926999994, 49.747544664000145], [-124.13316809799993, 49.753851630000014], [-124.11913001199989, 49.75482819199999], [-124.1026505199999, 49.7468936220001], [-124.10122636599992, 49.76044342700007], [-124.09813391799993, 49.766994533000144], [-124.09024003799996, 49.77033112200019], [-124.04747473899995, 49.77924225500013], [-124.0201309889999, 49.78099192900012], [-124.0196427069999, 49.77627187700011], [-124.02122962099993, 49.775091864000075], [-124.0239965489999, 49.775295315000136], [-124.02696692599991, 49.77415599200009], [-124.07453365799991, 49.74135976800008], [-124.08161373599987, 49.72943756700013], [-124.0857641269999, 49.72406647300011], [-124.10948645699992, 49.67796458500007]]]}}, {"type": "Feature", "properties": {}, "geometry": {"type": "Polygon", "coordinates": [[[-124.6675105459999, 49.83958567900004], [-124.67088782499991, 49.85142649900007], [-124.6670222649999, 49.86823151200008], [-124.65367591099994, 49.88226959800005], [-124.6487117179999, 49.88336823100008], [-124.63935299399992, 49.87795644700009], [-124.6301977199999, 49.86579010600008], [-124.64032955599993, 49.85187409100007], [-124.6506648429999, 49.84646230700008], [-124.6585180329999, 49.841782945000034], [-124.6675105459999, 49.83958567900004]]]}}, {"type": "Feature", "properties": {}, "geometry": {"type": "Polygon", "coordinates": [[[-124.9204, 49.99714917284616], [-124.9182836579999, 49.99664948100008], [-124.90741939999992, 49.997259833000044], [-124.90184485599991, 49.99518463700008], [-124.88499915299991, 49.987534898000035], [-124.89305579299992, 49.980983791000085], [-124.8999731109999, 49.96792226800005], [-124.91641191299993, 49.966864325000074], [-124.9204, 49.96861219001761], [-124.9204, 49.99714917284616]]]}}, {"type": "Feature", "properties": {}, "geometry": {"type": "Polygon", "coordinates": [[[-124.89098059799996, 50.06903717700007], [-124.91958574099993, 50.059637762000136], [-124.9204, 50.059500911764985], [-124.9204, 50.120979079537], [-124.91441809799993, 50.11595286700009], [-124.91079667899987, 50.11371491100013], [-124.90965735599993, 50.098618882000125], [-124.90611731699995, 50.08779531500011], [-124.89997311099988, 50.07880280200001], [-124.89098059799996, 50.06903717700007]]]}}, {"type": "Feature", "properties": {}, "geometry": {"type": "Polygon", "coordinates": [[[-124.91828365799985, 50.150946356000105], [-124.91746985599993, 50.14549388199998], [-124.9175919259999, 50.13873932500013], [-124.91881262899992, 50.13296133000017], [-124.9204, 50.131575175584025], [-124.9204, 50.154550502204906], [-124.91828365799985, 50.150946356000105]]]}}, {"type": "Feature", "properties": {}, "geometry": {"type": "Polygon", "coordinates": [[[-124.83234615799984, 50.11737702000008], [-124.84251868399987, 50.12221914300014], [-124.85228430899991, 50.13328685100009], [-124.86676998599987, 50.15468984600014], [-124.86937415299987, 50.16632721600013], [-124.85826575399993, 50.173488674], [-124.84190833199992, 50.178778387000165], [-124.82892818899991, 50.18504466400012], [-124.84044348899995, 50.19830963700005], [-124.85610917899993, 50.199530341000155], [-124.89098059799996, 50.192531643], [-124.91274980399992, 50.19432200699998], [-124.9204, 50.1975332002252], [-124.9204, 50.30026038705047], [-124.91706295499992, 50.30345286700012], [-124.88267981699988, 50.28961823100002], [-124.83568274599986, 50.28123607000006], [-124.81574459499987, 50.27383047100017], [-124.81191972599994, 50.269476629999986], [-124.81655839799988, 50.2623965520001], [-124.82201087099992, 50.24652741100007], [-124.81566321499989, 50.211574611000174], [-124.79173743399993, 50.19798411700012], [-124.76585852799991, 50.189154364000075], [-124.75377356699991, 50.1682803410001], [-124.76353919199994, 50.15623607000009], [-124.7862442699999, 50.139227606000105], [-124.81236731699994, 50.124009507000125], [-124.83234615799984, 50.11737702000008]]]}}, {"type": "Feature", "properties": {}, "geometry": {"type": "Polygon", "coordinates": [[[-124.71556555899986, 50.16217682500002], [-124.72581946499989, 50.163234768000166], [-124.73070227799985, 50.16795482000006], [-124.73058020699997, 50.174505927000155], [-124.73643958199992, 50.186468817000076], [-124.74282792899994, 50.204169012000165], [-124.7391658189999, 50.21991608300013], [-124.72687740799984, 50.24315013199998], [-124.70860755099996, 50.26044342700007], [-124.70539303299991, 50.27411530200001], [-124.71255449099995, 50.285711981000105], [-124.72329667899996, 50.292873440000164], [-124.72716223899997, 50.29116445500006], [-124.72500566299996, 50.2814802100001], [-124.72516842399993, 50.27326080900011], [-124.72679602799985, 50.2663028020001], [-124.73326575399994, 50.25372955900011], [-124.75666256399985, 50.219387111000145], [-124.76797441299992, 50.21426015800006], [-124.78246008999987, 50.2191836610001], [-124.8026423819999, 50.228583075000046], [-124.8082576159999, 50.23187897300008], [-124.81224524599988, 50.23981354400004], [-124.79466712099995, 50.26211172100008], [-124.78648841099994, 50.27728913000007], [-124.77342688699987, 50.289496161000045], [-124.75894120999992, 50.29653554900011], [-124.74852454299992, 50.303941148], [-124.72508704299995, 50.30451080900016], [-124.68980872299991, 50.29067617400017], [-124.66144771999988, 50.26284414300011], [-124.65074622299994, 50.22443268400011], [-124.66454016799986, 50.19122955900016], [-124.69383704299989, 50.17104726800014], [-124.71556555899986, 50.16217682500002]]]}}, {"type": "Feature", "properties": {}, "geometry": {"type": "Polygon", "coordinates": [[[-124.9204, 50.61500407086747], [-124.9204, 50.616299999999995], [-124.91912240949058, 50.616299999999995], [-124.9204, 50.61500407086747]]]}}, {"type": "Feature", "properties": {}, "geometry": {"type": "Polygon", "coordinates": [[[-123.2390844389999, 48.42015208500004], [-123.23989824099993, 48.41946035400008], [-123.2434382799999, 48.41966380400004], [-123.25108801999994, 48.42519765800006], [-123.24828040299991, 48.42942942900004], [-123.23884029899995, 48.430121161000045], [-123.22655188699991, 48.425848700000074], [-123.22866777299993, 48.42259349200003], [-123.23493404899995, 48.42259349200003], [-123.2371313139999, 48.42214590100008], [-123.23867753799993, 48.42133209800005], [-123.2390844389999, 48.42015208500004]]]}}, {"type": "Feature", "properties": {}, "geometry": {"type": "Polygon", "coordinates": [[[-122.99913489499997, 48.4726016300001], [-122.99132239499988, 48.467678127000056], [-122.98289954299993, 48.463609117], [-122.96495520699989, 48.458319403000104], [-122.96495520699989, 48.45148346600001], [-122.97931881399987, 48.456366278000075], [-122.9903865229999, 48.45587799700019], [-123.0016169909999, 48.453111070000034], [-123.01646887899996, 48.45148346600001], [-123.03001868399993, 48.45380280200007], [-123.03844153599988, 48.45941803600007], [-123.0452774729999, 48.46637604400016], [-123.05370032499985, 48.4726016300001], [-123.06541907499994, 48.47850169500006], [-123.07038326699988, 48.48012929900008], [-123.09162350199996, 48.478827216000155], [-123.10265051999991, 48.480292059000135], [-123.11636308499995, 48.484198309000135], [-123.12970943899987, 48.489732164000145], [-123.13931230399993, 48.49583567900012], [-123.14915930899986, 48.505601304000066], [-123.15444902299993, 48.513128973000136], [-123.16657467399992, 48.543524481000105], [-123.17393958199992, 48.57343170800007], [-123.17414303299988, 48.57843659100013], [-123.17756100199998, 48.598822333000015], [-123.15843665299991, 48.61456940300016], [-123.1291397779999, 48.620062567000076], [-123.10212154899993, 48.60911692900012], [-123.09382076699987, 48.5976016300001], [-123.07664954299993, 48.58405182500013], [-123.0577693349999, 48.57290273600009], [-123.02464758999987, 48.56281159100004], [-123.00430253799988, 48.53945547100014], [-122.97765051999994, 48.53131745000013], [-122.97996985599991, 48.525132554000066], [-122.99225826699987, 48.513576565000136], [-123.00234941299993, 48.509182033000144], [-123.01056881399984, 48.51162344], [-123.01659094999994, 48.51141998900013], [-123.0201716789999, 48.49933502800013], [-123.01683508999989, 48.496649481000134], [-122.99913489499997, 48.4726016300001]]]}}, {"type": "Feature", "properties": {}, "geometry": {"type": "Polygon", "coordinates": [[[-123.35855058499993, 48.598496812000064], [-123.3557836579999, 48.597357489000046], [-123.35366777299993, 48.59804922100005], [-123.35545813699991, 48.60187409100007], [-123.3613582019999, 48.607489325000074], [-123.36754309799994, 48.610622463000084], [-123.37425696499992, 48.613267320000034], [-123.3762914699999, 48.618028062000064], [-123.3726293609999, 48.61627838700008], [-123.35492916599992, 48.61383698100008], [-123.34740149599992, 48.60626862200007], [-123.3413386709999, 48.60541413000004], [-123.3381648429999, 48.59369538000004], [-123.34935462099992, 48.58824290600006], [-123.35142981699994, 48.58820221600007], [-123.35175533799992, 48.58881256700005], [-123.35655676999994, 48.593410549000055], [-123.35855058499993, 48.598496812000064]]]}}, {"type": "Feature", "properties": {}, "geometry": {"type": "Polygon", "coordinates": [[[-123.28795325399993, 48.591253973000136], [-123.30288652299988, 48.59699127800013], [-123.31265214799991, 48.608465887000165], [-123.32534745999989, 48.61933014500016], [-123.33665930899987, 48.63108958500004], [-123.33800208199995, 48.63422272300002], [-123.33267167899989, 48.629543361], [-123.33193925699995, 48.63442617400017], [-123.33861243399991, 48.64647044500009], [-123.33747311099988, 48.648423570000034], [-123.32681230399994, 48.640041408000144], [-123.31696529899992, 48.62897370000013], [-123.30528723899992, 48.61880117400008], [-123.2945857409999, 48.61456940300016], [-123.28693600199996, 48.612697658], [-123.28311113199995, 48.61127350500013], [-123.28034420499989, 48.60130442900004], [-123.28795325399993, 48.591253973000136]]]}}, {"type": "Feature", "properties": {}, "geometry": {"type": "Polygon", "coordinates": [[[-123.16323808499993, 48.65013255400004], [-123.15221106699994, 48.64846426000008], [-123.1467992829999, 48.64679596600007], [-123.1321101549999, 48.64366282800006], [-123.12096106699994, 48.641465562000064], [-123.11375891799992, 48.63804759300007], [-123.11070716099994, 48.63727448100008], [-123.10814368399991, 48.63523997600004], [-123.10846920499989, 48.63430410400008], [-123.1408992179999, 48.63804759300007], [-123.15038001199991, 48.642279364000046], [-123.16401119699992, 48.64626699400009], [-123.16323808499993, 48.65013255400004]]]}}, {"type": "Feature", "properties": {}, "geometry": {"type": "Polygon", "coordinates": [[[-123.18696041599992, 48.66783274900007], [-123.18411210799991, 48.662543036000045], [-123.1897273429999, 48.659857489000046], [-123.2356257799999, 48.680121161000045], [-123.23912512899994, 48.686753648000035], [-123.23135331899994, 48.690619208000044], [-123.21532141799992, 48.688666083000044], [-123.20844479099992, 48.68374258000006], [-123.20653235599991, 48.680894273000035], [-123.19391842399995, 48.67601146000004], [-123.18720455599993, 48.67560455900008], [-123.17825273299991, 48.68081289300005], [-123.17434648299991, 48.68032461100006], [-123.17084713399993, 48.67735423400006], [-123.16889400899993, 48.67295970300006], [-123.17231197799993, 48.66860586100006], [-123.17943274599992, 48.66860586100006], [-123.19009355399993, 48.672390041000085], [-123.19774329299992, 48.67283763200004], [-123.19554602799991, 48.67064036700003], [-123.18696041599992, 48.66783274900007]]]}}, {"type": "Feature", "properties": {}, "geometry": {"type": "Polygon", "coordinates": [[[-123.3296199209999, 48.71592845300006], [-123.3340144519999, 48.719265041000085], [-123.32921301999994, 48.72634511900009], [-123.32998613199993, 48.72964101800005], [-123.32787024599992, 48.73183828300006], [-123.3230281239999, 48.73122793200008], [-123.31090247299994, 48.730576890000066], [-123.30235755099994, 48.722764390000066], [-123.29438229099992, 48.71625397300005], [-123.29702714799993, 48.70490143400008], [-123.30068925699993, 48.70189036700003], [-123.29946855399993, 48.699733791000085], [-123.29975338399993, 48.69912344000005], [-123.3047175769999, 48.70034414300005], [-123.3206274079999, 48.707098700000074], [-123.3296199209999, 48.71592845300006]]]}}, {"type": "Feature", "properties": {}, "geometry": {"type": "Polygon", "coordinates": [[[-123.3726293609999, 48.73484935100004], [-123.36729895699995, 48.73509349200003], [-123.36310787699995, 48.73082103100006], [-123.3616430329999, 48.72683340100008], [-123.36656653599994, 48.72129954600007], [-123.37291419199994, 48.716864325000074], [-123.37230383999992, 48.71442291900007], [-123.37450110599991, 48.714097398000035], [-123.37474524599992, 48.71564362200007], [-123.38206946499992, 48.71869538000004], [-123.38817298099991, 48.72520579600007], [-123.38589433499993, 48.72634511900009], [-123.38027910099993, 48.73049551000008], [-123.37779700399994, 48.73647695500006], [-123.3726293609999, 48.73484935100004]]]}}, {"type": "Feature", "properties": {}, "geometry": {"type": "Polygon", "coordinates": [[[-123.18667558499988, 48.73639557500016], [-123.19945227799991, 48.73212311400016], [-123.22492428299992, 48.734930731000105], [-123.24046790299992, 48.73639557500016], [-123.25747636599989, 48.739203192000105], [-123.28294837099989, 48.75189850500007], [-123.29149329299992, 48.7561709660001], [-123.30699622299993, 48.76463450700004], [-123.31126868399994, 48.7717145850001], [-123.31126868399994, 48.78876373900013], [-123.31126868399994, 48.79726797100008], [-123.32262122299991, 48.80573151200011], [-123.32262122299991, 48.812811591000184], [-123.31265214799991, 48.8170840520001], [-123.29857337099988, 48.81561920800013], [-123.2872208319999, 48.812811591000184], [-123.26598059799991, 48.80003489800012], [-123.2518204419999, 48.790187893000024], [-123.24901282499985, 48.777411200000074], [-123.25039628799992, 48.76609935100009], [-123.24046790299992, 48.76186758000017], [-123.21922766799993, 48.76186758000017], [-123.20225989499995, 48.758978583000044], [-123.18809973899994, 48.7561709660001], [-123.18244381399985, 48.74347565300013], [-123.18667558499988, 48.73639557500016]]]}}, {"type": "Feature", "properties": {}, "geometry": {"type": "Polygon", "coordinates": [[[-123.20368404899993, 48.78449127800013], [-123.20368404899993, 48.79437897300005], [-123.20368404899993, 48.8014590520001], [-123.20368404899993, 48.808539129999986], [-123.20791581899995, 48.81561920800013], [-123.21642005099989, 48.81989166900013], [-123.22207597599989, 48.8226992860001], [-123.22350012899994, 48.83266836100009], [-123.20368404899993, 48.82977936400016], [-123.17959550699992, 48.81561920800013], [-123.14142818899985, 48.8014590520001], [-123.09044348899994, 48.79865143400016], [-123.05361894399996, 48.79584381700002], [-123.04377193899985, 48.78876373900013], [-123.04230709499988, 48.78449127800013], [-123.05361894399996, 48.783107815000136], [-123.07062740799984, 48.77879466400006], [-123.0777074859999, 48.776027736], [-123.08901933499988, 48.76752350500007], [-123.10171464799993, 48.76186758000017], [-123.12018795499986, 48.76463450700004], [-123.13711503799993, 48.76463450700004], [-123.15835527299993, 48.76325104400016], [-123.17113196499987, 48.768947658000116], [-123.18529212099989, 48.77460358300013], [-123.20368404899993, 48.78449127800013]]]}}, {"type": "Feature", "properties": {}, "geometry": {"type": "Polygon", "coordinates": [[[-123.4040828119999, 48.84251536700003], [-123.3984675769999, 48.841131903000075], [-123.39940344999991, 48.841782945000034], [-123.3899633449999, 48.844265041000085], [-123.37934322799993, 48.84007396000004], [-123.37490800699993, 48.83816152600008], [-123.3589167959999, 48.83242422100005], [-123.35541744699992, 48.82282135600008], [-123.36054439999992, 48.82265859600005], [-123.36152096299992, 48.819973049000055], [-123.3625789049999, 48.815619208000044], [-123.37002519399994, 48.817694403000075], [-123.37364661399994, 48.816473700000074], [-123.36632239499994, 48.811835028000075], [-123.36571204299992, 48.808701890000066], [-123.37002519399994, 48.80939362200007], [-123.37450110599991, 48.80931224200003], [-123.3841039699999, 48.81476471600007], [-123.39028886599993, 48.819973049000055], [-123.39541581899994, 48.822699286000045], [-123.40274003799993, 48.83120351800005], [-123.40111243399991, 48.834092515000066], [-123.4036352199999, 48.837225653000075], [-123.4040828119999, 48.84251536700003]]]}}, {"type": "Feature", "properties": {}, "geometry": {"type": "Polygon", "coordinates": [[[-123.4886368479999, 48.86229075700004], [-123.49453691299992, 48.86098867400014], [-123.49876868399986, 48.85626862200013], [-123.49998938699987, 48.84935130400012], [-123.49600175699989, 48.84552643400002], [-123.47203528599994, 48.828273830000114], [-123.36900794199988, 48.774237372000016], [-123.3823136059999, 48.7561709660001], [-123.40758216099995, 48.754055080000086], [-123.45840410099989, 48.76740143400019], [-123.4514867829999, 48.75946686400013], [-123.4285375639999, 48.7383487000001], [-123.4276423819999, 48.72955963700005], [-123.44041907499985, 48.72211334800008], [-123.46100826699988, 48.715399481000134], [-123.4820857409999, 48.71222565300016], [-123.49624589799993, 48.71556224200009], [-123.5088598299999, 48.72406647300011], [-123.52041581899994, 48.72866445500006], [-123.53111731699995, 48.73436107000012], [-123.54092363199989, 48.746323959999984], [-123.54637610599993, 48.757269598000136], [-123.54971269399995, 48.77073802300012], [-123.54678300699993, 48.78392161700006], [-123.53351803299991, 48.794134833000015], [-123.53351803299991, 48.800970770000106], [-123.55337480399992, 48.814683335000154], [-123.56981360599991, 48.83242422100014], [-123.57152258999992, 48.849758205000114], [-123.54718990799985, 48.86237213700002], [-123.57192949099992, 48.88149648600009], [-123.58665930899991, 48.89801666900016], [-123.59373938699987, 48.919094143], [-123.59557044199994, 48.95180898600012], [-123.59007727799991, 48.947414455000114], [-123.58649654899995, 48.94257233300016], [-123.58189856699991, 48.93130117400014], [-123.50308183499995, 48.891669012000136], [-123.43106035099991, 48.84194570500014], [-123.44517981699994, 48.84170156500011], [-123.45881100199989, 48.84491608300016], [-123.4713435539999, 48.85106028900012], [-123.48228919199995, 48.85932038000013], [-123.4886368479999, 48.86229075700004]]]}}, {"type": "Feature", "properties": {}, "geometry": {"type": "Polygon", "coordinates": [[[-123.24795488199993, 48.85610586100006], [-123.26545162699995, 48.85927969000005], [-123.2652074859999, 48.85736725500004], [-123.25011145699995, 48.84914785400008], [-123.24677486899992, 48.845811265000066], [-123.2481176419999, 48.84292226800005], [-123.24754798099991, 48.83702220300006], [-123.2488093739999, 48.83010488500008], [-123.2444555329999, 48.826239325000074], [-123.23473059799994, 48.82184479400007], [-123.23090572799993, 48.81740957200009], [-123.23212643099993, 48.81439850500004], [-123.23542232999989, 48.81382884300007], [-123.2390437489999, 48.81578196800007], [-123.32237708199995, 48.83161041900007], [-123.3277074859999, 48.836004950000074], [-123.3289281889999, 48.84003327000005], [-123.3288874989999, 48.84507884300007], [-123.33189856699994, 48.84906647300005], [-123.33849036399994, 48.851548570000034], [-123.33844967399995, 48.854681708000044], [-123.3281957669999, 48.85610586100006], [-123.31305904899995, 48.85158926000008], [-123.3069555329999, 48.852769273000035], [-123.30182857999989, 48.855576890000066], [-123.30483964799993, 48.86473216400009], [-123.30272376199991, 48.86888255400004], [-123.29625403599994, 48.87164948100008], [-123.28807532499991, 48.87213776200008], [-123.24795488199993, 48.85610586100006]]]}}, {"type": "Feature", "properties": {}, "geometry": {"type": "Polygon", "coordinates": [[[-123.65599524599992, 48.946926174000055], [-123.6601863269999, 48.95563385600008], [-123.66161048099991, 48.963771877000056], [-123.66059322799993, 48.96755605700008], [-123.66246497299994, 48.97109609600005], [-123.6680395169999, 48.97516510600008], [-123.6663305329999, 48.97984446800007], [-123.6604304679999, 48.98350657800006], [-123.65664628799993, 48.98350657800006], [-123.6516820949999, 48.981675523000035], [-123.6443171869999, 48.98187897300005], [-123.63931230399993, 48.97988515800006], [-123.63394120999993, 48.96552155200004], [-123.63068600199995, 48.94436269700009], [-123.63447018099993, 48.93459707200009], [-123.64256751199991, 48.94098541900007], [-123.64952551999994, 48.943019924000055], [-123.65599524599992, 48.946926174000055]]]}}, {"type": "Feature", "properties": {}, "geometry": {"type": "Polygon", "coordinates": [[[-123.53075110599985, 48.94196198100019], [-123.6329239569999, 49.02435944200013], [-123.65392005099994, 49.03367747599998], [-123.6588435539999, 49.041205145000134], [-123.69798743399994, 49.08209870000016], [-123.70274817599994, 49.09992096600004], [-123.69725501199991, 49.10932038000007], [-123.68700110599988, 49.10854726800014], [-123.65855872299996, 49.072699286000045], [-123.57038326699988, 48.99176666900007], [-123.54674231699994, 48.97622304900017], [-123.47191321499987, 48.93813711100009], [-123.45714270699997, 48.93325429900011], [-123.42878170499985, 48.92967357000012], [-123.39093990799991, 48.920152085000126], [-123.36595618399988, 48.907131252000056], [-123.33446204299987, 48.90298086100012], [-123.3218481109999, 48.8965518250001], [-123.3144425119999, 48.88231028900017], [-123.31712805899988, 48.8698184270001], [-123.32738196499992, 48.863959052000126], [-123.34235592399995, 48.8698184270001], [-123.36929277299991, 48.861883856000134], [-123.39452063699987, 48.872381903000104], [-123.43732662699996, 48.90399811399999], [-123.53075110599985, 48.94196198100019]]]}}, {"type": "Feature", "properties": {}, "geometry": {"type": "Polygon", "coordinates": [[[-123.41812089799991, 49.38092682500002], [-123.38467363199995, 49.404038804000066], [-123.36969967399992, 49.41136302299998], [-123.34996497299989, 49.41754791900013], [-123.32632402299996, 49.420477606000134], [-123.31517493399993, 49.41339752800019], [-123.3192032539999, 49.399318752000056], [-123.32542883999987, 49.389634507000096], [-123.33014889199987, 49.38418203300006], [-123.33014889199987, 49.38153717700007], [-123.3265681629999, 49.381496486000174], [-123.33067786399994, 49.37287018400016], [-123.33657792899989, 49.36456940300019], [-123.34410559799994, 49.35578034100013], [-123.35936438699991, 49.34292226800011], [-123.3758845689999, 49.33710358300013], [-123.38475501199993, 49.3355166690001], [-123.4160050119999, 49.337225653000104], [-123.42617753799995, 49.34007396000007], [-123.42943274599989, 49.34674713700002], [-123.42699133999986, 49.3554141300001], [-123.42577063699994, 49.3674990910001], [-123.41812089799991, 49.38092682500002]]]}}, {"type": "Feature", "properties": {}, "geometry": {"type": "Polygon", "coordinates": [[[-123.49518795499989, 49.38430410400008], [-123.49901282499991, 49.38239166900007], [-123.49994869699992, 49.38239166900007], [-123.5002742179999, 49.38336823100008], [-123.49644934799994, 49.38963450700004], [-123.48383541599992, 49.39801666900007], [-123.47085527299993, 49.40782298400006], [-123.46410071499992, 49.41164785400008], [-123.45396887899994, 49.41087474200003], [-123.43797766799992, 49.40562571800007], [-123.43443762899994, 49.39822011900009], [-123.43846594999991, 49.39297109600005], [-123.44965572799993, 49.39093659100007], [-123.45820064999992, 49.39142487200007], [-123.47545325399994, 49.39240143400008], [-123.49518795499989, 49.38430410400008]]]}}, {"type": "Feature", "properties": {}, "geometry": {"type": "Polygon", "coordinates": [[[-123.40379798099993, 49.465725002000084], [-123.41519120999989, 49.45868561400002], [-123.42320716099994, 49.45123932500013], [-123.43342037699996, 49.445990302000155], [-123.45156816299988, 49.445217190000136], [-123.44912675699993, 49.45868561400002], [-123.45445716099991, 49.469305731000134], [-123.4566544259999, 49.4782168640001], [-123.44473222599994, 49.486151434000135], [-123.44473222599994, 49.493597723000136], [-123.45262610599993, 49.50812409100007], [-123.43968665299992, 49.52130768400011], [-123.41812089799991, 49.53091054900008], [-123.39167232999984, 49.53632233300013], [-123.38239498599988, 49.539740302000155], [-123.37254798099987, 49.54205963700002], [-123.36217200399996, 49.54075755400012], [-123.35676021999991, 49.534898179000066], [-123.34235592399995, 49.506659247000016], [-123.32249915299994, 49.486070054000066], [-123.32380123599985, 49.46185944199999], [-123.34268144399996, 49.44293854400016], [-123.3758438789999, 49.43838125200011], [-123.36742102799985, 49.45384349200012], [-123.37462317599997, 49.463527736], [-123.38939368399987, 49.46743398600009], [-123.40379798099993, 49.465725002000084]]]}}, {"type": "Feature", "properties": {}, "geometry": {"type": "Polygon", "coordinates": [[[-122.49260618855958, 47.479000000000006], [-122.48900305899993, 47.4826520850001], [-122.4710180329999, 47.495794989000075], [-122.45563717399995, 47.500881252000084], [-122.46206620999996, 47.48676178600007], [-122.4576309889999, 47.480169989000075], [-122.4554110098148, 47.479000000000006], [-122.49260618855958, 47.479000000000006]]]}}, {"type": "Feature", "properties": {}, "geometry": {"type": "Polygon", "coordinates": [[[-122.5423477859999, 47.59552643400019], [-122.55760657499987, 47.597886460000126], [-122.57054602799987, 47.59609609600014], [-122.57787024599988, 47.60154857], [-122.56956946499989, 47.618109442000076], [-122.56769771999991, 47.6295840520001], [-122.57461503799992, 47.6378848330001], [-122.57925370999995, 47.6486677100001], [-122.58047441299996, 47.662990627000084], [-122.57892818899992, 47.66937897300011], [-122.56187903599997, 47.685614325000046], [-122.55801347599996, 47.6957461610001], [-122.55894934799994, 47.70595937700014], [-122.55776933499992, 47.713812567000105], [-122.54792232999989, 47.71698639499999], [-122.53770911399995, 47.7147891300001], [-122.52651933499995, 47.709295966000155], [-122.51683508999989, 47.70237864799998], [-122.51097571499994, 47.69586823100016], [-122.50584876199993, 47.6632754580001], [-122.49962317599997, 47.6486677100001], [-122.48985755099993, 47.64126211100012], [-122.49803626199994, 47.63361237200016], [-122.50328528599992, 47.63003164300011], [-122.51097571499994, 47.627590236000174], [-122.50015214799994, 47.619289455], [-122.50059973899994, 47.61172109600014], [-122.4969376289999, 47.60712311400002], [-122.49510657499992, 47.60154857], [-122.49327551999994, 47.59422435100009], [-122.48863684799991, 47.58958567899998], [-122.48037675699993, 47.586859442000105], [-122.48863684799991, 47.58136627800016], [-122.49876868399987, 47.57123444200002], [-122.52086341099995, 47.573960679000095], [-122.5423477859999, 47.59552643400019]]]}}, {"type": "Feature", "properties": {}, "geometry": {"type": "Polygon", "coordinates": [[[-122.7635391919999, 47.66913483300016], [-122.7570694649999, 47.68231842700001], [-122.7427872389999, 47.7268740910001], [-122.7337540359999, 47.74258047100014], [-122.63487708199996, 47.83966705900019], [-122.62364661399997, 47.84715403900006], [-122.61318925699989, 47.85028717700004], [-122.59569251199994, 47.84723541900004], [-122.5941462879999, 47.83978913000007], [-122.59699459499984, 47.830715236000145], [-122.59215247299996, 47.82298411700006], [-122.57095292899987, 47.81976959800011], [-122.56651770699989, 47.834458726], [-122.57144120999995, 47.85708242400014], [-122.58828691299995, 47.904445705000086], [-122.59215247299996, 47.91176992400011], [-122.6109919909999, 47.9359805360001], [-122.61318925699989, 47.945949611], [-122.55337480399993, 47.920843817000105], [-122.5280655589999, 47.905503648000064], [-122.51768958199989, 47.88104889500002], [-122.51646887899997, 47.866359768000024], [-122.51024329299992, 47.832586981000134], [-122.50422115799991, 47.82245514500008], [-122.49376380099993, 47.81403229400013], [-122.49006100199989, 47.80385976800008], [-122.50401770699995, 47.78823476800008], [-122.49502519399994, 47.786118882000096], [-122.48452714799987, 47.78213125200011], [-122.47516842399993, 47.7760684270001], [-122.4692276679999, 47.76837799700019], [-122.4683731759999, 47.756537177000126], [-122.47345943899984, 47.748032945], [-122.47972571499989, 47.7418887390001], [-122.48289954299995, 47.737005927000155], [-122.49290930899993, 47.735256252000056], [-122.54108639199988, 47.7428653020001], [-122.55797278599997, 47.74042389500016], [-122.55577551999988, 47.72870514500008], [-122.56468665299991, 47.71255117400011], [-122.57970130099994, 47.69818756700013], [-122.5958552729999, 47.69196198100008], [-122.6516007149999, 47.732570705000086], [-122.66104081899992, 47.73045481999998], [-122.6581111319999, 47.71796295800016], [-122.65099036399994, 47.711411851000065], [-122.64191646999986, 47.70669179900017], [-122.63312740799988, 47.699448960000126], [-122.62840735599987, 47.69293854400013], [-122.59215247299996, 47.597072658000116], [-122.59959876199993, 47.590236721000025], [-122.59215247299996, 47.58274974200006], [-122.61693274599992, 47.57412344000005], [-122.64378821499992, 47.595851955000114], [-122.68150794199988, 47.651678778000104], [-122.6891983709999, 47.64354075700007], [-122.69456946499986, 47.63410065300016], [-122.6969294909999, 47.62311432500002], [-122.69579016799987, 47.610052802000126], [-122.69001217399992, 47.59662506700013], [-122.68154863199987, 47.590521552000155], [-122.6468399729999, 47.57697174700019], [-122.63914954299989, 47.57705312700017], [-122.63898678299992, 47.57477448100019], [-122.64736894399988, 47.56232330900008], [-122.65689042899989, 47.551743882000125], [-122.67593339799987, 47.53766510600016], [-122.68150794199988, 47.527533270000134], [-122.63019771999986, 47.544378973000136], [-122.60704505099991, 47.55548737200016], [-122.5859268869999, 47.56907786700012], [-122.55313066299989, 47.58340078300009], [-122.5432022779999, 47.56679922100014], [-122.54161536399995, 47.54096100500013], [-122.5340876939999, 47.527533270000134], [-122.50792395699995, 47.5203311220001], [-122.50959225199996, 47.502915757000125], [-122.52269446499993, 47.481756903000104], [-122.52386406030541, 47.479000000000006], [-123.04960853276687, 47.479000000000006], [-123.02261308499993, 47.52289459800011], [-122.94904537699996, 47.597072658000116], [-122.93545488199992, 47.602850653000104], [-122.8732804029999, 47.63117096600013], [-122.79820716099988, 47.651678778000104], [-122.77538001199986, 47.660711981000105], [-122.7635391919999, 47.66913483300016]]]}}, {"type": "Feature", "properties": {}, "geometry": {"type": "Polygon", "coordinates": [[[-122.7367244129999, 48.055731512000165], [-122.74087480399994, 48.074367580000086], [-122.7389216789999, 48.08250560100009], [-122.72931881399991, 48.08299388200007], [-122.72301184799997, 48.076239325000046], [-122.7203263009999, 48.0547549500001], [-122.71629798099993, 48.04828522300002], [-122.70197506399985, 48.04922109600008], [-122.70164954299992, 48.06439850500007], [-122.71198482999984, 48.08364492400011], [-122.72931881399991, 48.09674713700019], [-122.71890214799993, 48.102240302000126], [-122.70921790299987, 48.102240302000126], [-122.70116126199993, 48.0976016300001], [-122.68687903599994, 48.073228257000125], [-122.6771134109999, 48.048651434000135], [-122.67320716099991, 48.0237490910001], [-122.68150794199988, 48.00726959800011], [-122.70018469999987, 48.0077578800001], [-122.71760006399984, 48.02301666900016], [-122.73078365799988, 48.04242584800008], [-122.7367244129999, 48.055731512000165]]]}}, {"type": "Feature", "properties": {}, "geometry": {"type": "Polygon", "coordinates": [[[-122.53087317599994, 48.28384023600009], [-122.54637610599985, 48.28139883000014], [-122.56212317599991, 48.286200262000136], [-122.57591712099992, 48.2976748720001], [-122.59398352799994, 48.30792877800013], [-122.60899817599996, 48.299139716000155], [-122.62035071499993, 48.281927802000126], [-122.6274307929999, 48.26727936400013], [-122.6412654289999, 48.28799062700014], [-122.64679928299991, 48.2808291690001], [-122.6485489569999, 48.262640692000105], [-122.65135657499987, 48.24994538000013], [-122.66592363199989, 48.24217357000015], [-122.72370357999992, 48.23379140800009], [-122.71007239499997, 48.221421617000146], [-122.6961156889999, 48.220160223000136], [-122.6650284499999, 48.22638580900019], [-122.65192623599984, 48.224066473000136], [-122.62832597599989, 48.21430084800008], [-122.61693274599992, 48.21206289300011], [-122.59552975199998, 48.205389716000155], [-122.58063717399992, 48.18846263199998], [-122.57103430899986, 48.1662458350001], [-122.55866451699991, 48.1213239600001], [-122.55459550699995, 48.06606679900008], [-122.5466202459999, 48.01703522300005], [-122.53551184799996, 48.0059268250001], [-122.52204342399989, 48.011948960000126], [-122.51024329299992, 48.03522370000013], [-122.5228572259999, 48.05707428599999], [-122.52403723899992, 48.07941315300002], [-122.51402747299994, 48.09076569199999], [-122.49315344999988, 48.07965729400016], [-122.47695878799992, 48.06525299700019], [-122.46003170499985, 48.05345286700012], [-122.38109290299991, 48.015814520000134], [-122.36554928299991, 47.99966054900017], [-122.35936438699993, 47.9766299500001], [-122.35065670499985, 47.960923570000034], [-122.34679114499994, 47.95058828300003], [-122.34947669199993, 47.945949611], [-122.35521399599989, 47.941961981000105], [-122.37364661399992, 47.91917552300009], [-122.37848873599991, 47.91469961100003], [-122.38190670499992, 47.90778229400013], [-122.3867081369999, 47.90493398600009], [-122.39297441299995, 47.90509674700013], [-122.39468339799996, 47.910345770000134], [-122.3958227199999, 47.91648997600012], [-122.40038001199994, 47.91917552300009], [-122.42227128799988, 47.912339584999984], [-122.43541419199993, 47.91046784100001], [-122.44131425699987, 47.91547272300005], [-122.4433487619999, 47.93691640800009], [-122.44969641799993, 47.95945872599998], [-122.46051998599992, 47.97785065300002], [-122.47606360599993, 47.986883856000105], [-122.48851477799985, 47.98509349200012], [-122.50706946499986, 47.970851955000114], [-122.51768958199989, 47.96629466400009], [-122.53034420499986, 47.96735260600005], [-122.53921464799991, 47.97215403900012], [-122.54808508999986, 47.97996653900003], [-122.56200110599994, 47.98737213700011], [-122.58018958199993, 48.00486888200007], [-122.5933324859999, 48.02537669500012], [-122.59215247299996, 48.042059637000136], [-122.60977128799989, 48.0604922550001], [-122.6148575509999, 48.074896552000155], [-122.6001684239999, 48.130113023000064], [-122.60724850199996, 48.15375397300011], [-122.62295488199993, 48.16331614800009], [-122.64439856699997, 48.16144440300013], [-122.6684464179999, 48.150580145000134], [-122.69322669199997, 48.18024323100008], [-122.69977779899995, 48.18475983300013], [-122.71011308499996, 48.1870791690001], [-122.72354081899995, 48.19269440300019], [-122.73615475199993, 48.19965241100007], [-122.74413001199989, 48.205877997000044], [-122.75572669199991, 48.22964101800014], [-122.75121008999986, 48.24994538000013], [-122.6684464179999, 48.3628604190001], [-122.65656490799986, 48.38507721600007], [-122.6308487619999, 48.384670315000164], [-122.61668860599988, 48.38959381700013], [-122.60545813699989, 48.39842357000009], [-122.59577389199993, 48.40192291900007], [-122.58649654899996, 48.39081452000005], [-122.58458411399991, 48.38336823100016], [-122.5828751289999, 48.38031647300008], [-122.57900956899991, 48.377142645000106], [-122.57770748599991, 48.35667552300015], [-122.51598059799989, 48.32196686399999], [-122.51756751199991, 48.29401276200005], [-122.53087317599994, 48.28384023600009]]]}}, {"type": "Feature", "properties": {}, "geometry": {"type": "Polygon", "coordinates": [[[-122.88988196499986, 48.42413971600013], [-122.88345292899994, 48.4414737000001], [-122.89867102799992, 48.44790273600012], [-122.92137610599987, 48.45099518400002], [-122.93761145699992, 48.458319403000104], [-122.94253495999988, 48.47577545800007], [-122.93700110599985, 48.493231512000136], [-122.92487545499986, 48.507147528000104], [-122.91030839799993, 48.513576565000136], [-122.91624915299987, 48.52387116100013], [-122.9169815749999, 48.5336367860001], [-122.91246497299993, 48.54173411700012], [-122.91030839799993, 48.54706452], [-122.88707434799991, 48.563666083000044], [-122.87702389199984, 48.565863348000136], [-122.8607478509999, 48.539618231000105], [-122.85903886599989, 48.52130768400005], [-122.86192786399992, 48.48932526200005], [-122.85846920499984, 48.47284577000016], [-122.84935462099993, 48.46161530200007], [-122.83629309799996, 48.459947007000125], [-122.82095292899992, 48.4726016300001], [-122.80833899599993, 48.45819733300013], [-122.80614173099994, 48.44204336100009], [-122.81309973899992, 48.4273135440001], [-122.82774817599993, 48.417385158], [-122.88988196499986, 48.42413971600013]]]}}, {"type": "Feature", "properties": {}, "geometry": {"type": "Polygon", "coordinates": [[[-122.82005774599992, 48.48078034100007], [-122.8235164049999, 48.481675523000035], [-122.82013912699995, 48.49441152600008], [-122.82241777299993, 48.49953847900008], [-122.82628333199995, 48.501654364000046], [-122.83002682199992, 48.50568268400008], [-122.83873450399994, 48.51113515800006], [-122.83844967399995, 48.51434967700004], [-122.83275305899991, 48.51935455900008], [-122.82339433499993, 48.524644273000035], [-122.79116777299993, 48.52370840100008], [-122.79352779899995, 48.52086009300007], [-122.79548092399995, 48.51471588700008], [-122.7910863919999, 48.51158274900007], [-122.78856360599991, 48.511013088000084], [-122.79067949099993, 48.50739166900007], [-122.8028051419999, 48.49416738500008], [-122.81623287699995, 48.48586660400008], [-122.81875566299993, 48.48147207200009], [-122.82005774599992, 48.48078034100007]]]}}, {"type": "Feature", "properties": {}, "geometry": {"type": "Polygon", "coordinates": [[[-122.64350338399993, 48.529811916000085], [-122.65477454299992, 48.543483791000085], [-122.6506648429999, 48.56732819200005], [-122.6536352199999, 48.571519273000035], [-122.65330969999991, 48.580186265000066], [-122.64907792899993, 48.58779531500005], [-122.6419164699999, 48.58588288000004], [-122.6265356109999, 48.57078685100004], [-122.5816137359999, 48.54861074400009], [-122.57848059799994, 48.54002513200004], [-122.57933508999992, 48.532497463000084], [-122.58507239499994, 48.53180573100008], [-122.59430904899995, 48.53656647300005], [-122.60252844999991, 48.53591543200008], [-122.62417558499993, 48.52932363500008], [-122.64350338399993, 48.529811916000085]]]}}, {"type": "Feature", "properties": {}, "geometry": {"type": "Polygon", "coordinates": [[[-122.92837480399993, 48.563381252000056], [-122.93472245999993, 48.56391022300005], [-122.93960527299993, 48.562933661000045], [-122.94302324099993, 48.56049225500004], [-122.94452877499992, 48.557074286000045], [-122.94546464799993, 48.55109284100007], [-122.95164954299992, 48.54751211100006], [-122.9851374989999, 48.55503978100006], [-122.9873347649999, 48.56049225500004], [-122.98314368399991, 48.56203847900008], [-122.9839574859999, 48.56513092700004], [-122.99502519399994, 48.57591380400004], [-122.99909420499989, 48.57762278900009], [-123.0110570949999, 48.57908763200004], [-123.01577714799993, 48.58234284100007], [-123.0144343739999, 48.58624909100007], [-123.00247148299991, 48.58653392100007], [-122.96996008999992, 48.59475332200009], [-122.96007239499994, 48.58970774900007], [-122.94127356699994, 48.587103583000044], [-122.9402563139999, 48.58502838700008], [-122.9409480459999, 48.57994212400007], [-122.93687903599994, 48.57575104400007], [-122.9331762359999, 48.577337958000044], [-122.9329320949999, 48.58177317900004], [-122.92943274599992, 48.584418036000045], [-122.92300370999993, 48.58535390800006], [-122.91441809799994, 48.58470286700003], [-122.91108150899993, 48.57754140800006], [-122.9160457019999, 48.56818268400008], [-122.9212133449999, 48.56504954600007], [-122.92438717399995, 48.56391022300005], [-122.92837480399993, 48.563381252000056]]]}}, {"type": "Feature", "properties": {}, "geometry": {"type": "Polygon", "coordinates": [[[-122.71548417899992, 48.606024481000134], [-122.70287024599993, 48.600409247000044], [-122.69640051999993, 48.59227122600012], [-122.69371497299996, 48.58592357000009], [-122.67845618399988, 48.57290273600009], [-122.6745499339999, 48.56879303600016], [-122.6792699859999, 48.564520575000046], [-122.68590247299996, 48.5569522160001], [-122.68805904899996, 48.54702383], [-122.69408118399987, 48.543524481000105], [-122.7030330069999, 48.541896877000084], [-122.71434485599988, 48.541937567000076], [-122.72288977799991, 48.54816315300013], [-122.73704993399993, 48.577134507000125], [-122.7354223299999, 48.590399481000134], [-122.7267960279999, 48.60150788000007], [-122.71548417899992, 48.606024481000134]]]}}, {"type": "Feature", "properties": {}, "geometry": {"type": "Polygon", "coordinates": [[[-122.6738582019999, 48.62669505400004], [-122.66808020699995, 48.62307363500008], [-122.66466223899994, 48.616400458000044], [-122.66372636599993, 48.607530015000066], [-122.68211829299992, 48.61269765800006], [-122.70014400899993, 48.623155015000066], [-122.69298255099994, 48.62527090100008], [-122.6738582019999, 48.62669505400004]]]}}, {"type": "Feature", "properties": {}, "geometry": {"type": "Polygon", "coordinates": [[[-122.80894934799989, 48.61127350500013], [-122.82095292899992, 48.60911692900012], [-122.83112545499986, 48.612697658], [-122.84137936099988, 48.62091705900019], [-122.86587480399992, 48.64960358300016], [-122.87987219999988, 48.67719147300008], [-122.8823949859999, 48.687974351000065], [-122.88678951699988, 48.69627513200015], [-122.89635169199995, 48.69977448100005], [-122.90591386599995, 48.69733307500002], [-122.91030839799993, 48.687974351000065], [-122.90876217399989, 48.67694733300013], [-122.9061173169999, 48.67108795800007], [-122.90562903599991, 48.666083075000046], [-122.91030839799993, 48.657538153000104], [-122.86192786399992, 48.60171133000014], [-122.87437903599994, 48.59373607000009], [-122.88752193899991, 48.58999258000014], [-122.91714433499995, 48.58869049700013], [-122.9333389959999, 48.592759507000096], [-122.94139563699993, 48.602606512000136], [-122.9458715489999, 48.61408112200007], [-122.95128333199995, 48.62343984600011], [-122.96841386599989, 48.634588934000135], [-122.98009192599989, 48.6386172550001], [-122.98546301999994, 48.6330427100001], [-122.98623613199996, 48.61933014500016], [-122.98961341099988, 48.60464101800014], [-122.99705969999987, 48.59715403900009], [-123.00963294199994, 48.60541413000007], [-123.02220618399993, 48.618394273000064], [-123.02651933499993, 48.6265322940001], [-123.02635657499988, 48.636460679000095], [-123.02090410099993, 48.64248281500011], [-122.99714107999985, 48.66058991100002], [-122.98884029899995, 48.66437409100004], [-122.97777258999992, 48.66779205900005], [-122.92931067599993, 48.708441473000136], [-122.91795813699987, 48.71141185100015], [-122.8966365229999, 48.71214427300009], [-122.85781816299988, 48.70868561399999], [-122.74583899599989, 48.66437409100004], [-122.75088456899992, 48.65473053600007], [-122.75723222599996, 48.650051174000055], [-122.80044511599995, 48.62962474200009], [-122.80451412699992, 48.623724677000126], [-122.80540930899991, 48.61688873900013], [-122.80894934799989, 48.61127350500013]]]}}, {"type": "Feature", "properties": {}, "geometry": {"type": "Polygon", "coordinates": [[[-122.71654212099988, 48.71523672100017], [-122.72028561099991, 48.72492096600013], [-122.7151586579999, 48.73908112200013], [-122.69847571499986, 48.734686591000155], [-122.67137610599993, 48.704820054000066], [-122.66234290299991, 48.69769928600013], [-122.64736894399988, 48.69074127800013], [-122.6351619129999, 48.68329498900016], [-122.62840735599987, 48.677069403000104], [-122.6214086579999, 48.66852448100008], [-122.61534583199989, 48.65863678600007], [-122.6131485669999, 48.648423570000034], [-122.62047278599991, 48.64594147300011], [-122.63361568899987, 48.651678778000075], [-122.65514075399989, 48.664740302000155], [-122.66222083199995, 48.67031484600014], [-122.67943274599986, 48.688177802000126], [-122.70311438699989, 48.70791250200014], [-122.71654212099988, 48.71523672100017]]]}}, {"type": "Feature", "properties": {}, "geometry": {"type": "Polygon", "coordinates": [[[-123.06582597599993, 48.700384833000044], [-123.0593969389999, 48.70567454600007], [-123.04657955599993, 48.71251048400006], [-123.04149329299992, 48.716864325000074], [-123.01459713399993, 48.721584377000056], [-123.00975501199991, 48.71662018400008], [-123.00841223899994, 48.697333075000074], [-123.00837154899995, 48.69236888200004], [-123.01284745999993, 48.687608140000066], [-123.03726152299993, 48.67690664300005], [-123.0417781239999, 48.678574937000064], [-123.0432836579999, 48.693345445000034], [-123.0464574859999, 48.695013739000046], [-123.06582597599993, 48.700384833000044]]]}}, {"type": "Feature", "properties": {}, "geometry": {"type": "Polygon", "coordinates": [[[-122.61888587099992, 48.709092515000066], [-122.62124589799993, 48.71735260600008], [-122.6223852199999, 48.71975332200009], [-122.61493893099993, 48.71592845300006], [-122.61074785099993, 48.71039459800005], [-122.6120906239999, 48.69554271000004], [-122.62071692599994, 48.69163646000004], [-122.6448461579999, 48.70457591400009], [-122.65379798099991, 48.71031321800007], [-122.64561926999994, 48.709092515000066], [-122.63324947799993, 48.710191148000035], [-122.62877356699994, 48.70758698100008], [-122.62144934799994, 48.70750560100004], [-122.61888587099992, 48.709092515000066]]]}}, {"type": "Feature", "properties": {}, "geometry": {"type": "Polygon", "coordinates": [[[-122.90420488199993, 48.752061265000066], [-122.90672766799992, 48.75226471600007], [-122.90375729099992, 48.74978261900009], [-122.90587317599994, 48.74787018400008], [-122.9129125639999, 48.75018952000005], [-122.9163305329999, 48.75173574400009], [-122.91429602799991, 48.752793687000064], [-122.9187312489999, 48.75543854400007], [-122.92243404899995, 48.761419989000046], [-122.9195043609999, 48.761704820000034], [-122.9175105459999, 48.761786200000074], [-122.9175512359999, 48.76321035400008], [-122.92105058499993, 48.764553127000056], [-122.92035885299993, 48.76825592700004], [-122.90733801999994, 48.770778713000084], [-122.89297441299993, 48.76866282800006], [-122.8828425769999, 48.76264069200005], [-122.89525305899991, 48.76475657800006], [-122.90416419199994, 48.764512437000064], [-122.91230221299992, 48.76080963700008], [-122.90339107999989, 48.75625234600005], [-122.89936275899993, 48.75771719000005], [-122.8867488269999, 48.74709707200009], [-122.89883378799993, 48.748480536000045], [-122.90420488199993, 48.752061265000066]]]}}, {"type": "Feature", "properties": {}, "geometry": {"type": "Polygon", "coordinates": [[[-122.40371660099987, 47.58197663000013], [-122.39045162699993, 47.5936953800001], [-122.37791907499994, 47.59617747600012], [-122.36660722599996, 47.58567942899998], [-122.3560684889999, 47.57127513200001], [-122.34577389199988, 47.56232330900008], [-122.34105383999987, 47.582953192000105], [-122.33999589799991, 47.598944403000104], [-122.34520423099991, 47.61196523600009], [-122.35936438699993, 47.62372467700007], [-122.40404212099989, 47.63739655200001], [-122.41348222599991, 47.64166901200002], [-122.42332923099993, 47.65106842700004], [-122.42878170499988, 47.66038646000007], [-122.42516028599991, 47.664740301999984], [-122.41368567599996, 47.667466539000145], [-122.40929114499988, 47.67438385600005], [-122.40680904899995, 47.68329498899999], [-122.40038001199994, 47.69196198100008], [-122.38467363199987, 47.70897044500012], [-122.38109290299991, 47.72016022300005], [-122.38390051999995, 47.736721096000025], [-122.3875626289999, 47.75234609600011], [-122.39834550699992, 47.762925523000064], [-122.40611731699991, 47.77789948100016], [-122.40436764199991, 47.79759349200003], [-122.39948482999985, 47.813950914000145], [-122.3919164699999, 47.82758209800008], [-122.38219153599995, 47.83905670800013], [-122.35260982999989, 47.85626862200013], [-122.33971106699988, 47.87278880400012], [-122.3369848299999, 47.89484284100013], [-122.33421790299985, 47.91046784100001], [-122.32457434799989, 47.92438385600016], [-122.3245336579999, 47.934149481000134], [-122.32042395699995, 47.9420840520001], [-122.31265214799994, 47.947211005000014], [-122.29271399599986, 47.957342841000155], [-122.28571529899997, 47.9628360050001], [-122.27717037699995, 47.96743398600003], [-122.24160722599989, 47.972805080000086], [-122.2328995429999, 47.97842031499999], [-122.21279863199995, 47.98680247600012], [-122.2091365229999, 47.99970123900016], [-122.20734615799991, 48.01439036700006], [-122.20083574099992, 48.01898834800008], [-122.19627844999988, 48.02265045800013], [-122.19172115799984, 48.026312567000105], [-122.19351152299991, 48.03095123900013], [-122.20177161399991, 48.03367747600009], [-122.20750891799987, 48.0375430360001], [-122.22158769399992, 48.038153387000136], [-122.23810787699989, 48.026312567000105], [-122.30772864499988, 48.06537506700016], [-122.34015865799988, 48.090033270000134], [-122.36229407499987, 48.122503973000136], [-122.36774654899989, 48.15961334800005], [-122.36571204299987, 48.190578518], [-122.37559973899988, 48.21320221600013], [-122.41685950399993, 48.225531317000105], [-122.42186438699987, 48.227972723000136], [-122.42837480399996, 48.232123114000075], [-122.4359431629999, 48.2346052100001], [-122.4442032539999, 48.2323672550001], [-122.4489639959999, 48.22284577000002], [-122.44611568899987, 48.202215887000165], [-122.4666235019999, 48.192043361000145], [-122.46947180899986, 48.17706940300002], [-122.46572831899992, 48.15908437700017], [-122.45787512899993, 48.14362213700005], [-122.44806881399991, 48.134182033000116], [-122.4321182929999, 48.122463283000144], [-122.41462154899995, 48.11249420800016], [-122.39981035099987, 48.108221747000044], [-122.38410396999991, 48.10146719000011], [-122.36913001199987, 48.085679429000066], [-122.34801184799996, 48.05426666900013], [-122.3660375639999, 48.0539004580001], [-122.37743079299986, 48.060248114000046], [-122.39639238199996, 48.08152903900012], [-122.40562903599992, 48.08779531500008], [-122.48965410099989, 48.1304385440001], [-122.5103653639999, 48.14744700700007], [-122.52611243399994, 48.17096588700011], [-122.53327389199988, 48.1961123720001], [-122.53123938699986, 48.21987539300011], [-122.5339503169999, 48.24967680000003], [-122.49885006399985, 48.252875067000076], [-122.46515865799985, 48.259955145000134], [-122.44591223899991, 48.261053778000075], [-122.42992102799991, 48.25910065300013], [-122.41836503799988, 48.25153229400016], [-122.4096573559999, 48.24140045800013], [-122.40078691299995, 48.23525625200014], [-122.38898678299988, 48.239813544000185], [-122.39370683499989, 48.24998607000012], [-122.3906143869999, 48.26019928600007], [-122.37531490799985, 48.28074778900012], [-122.3793839179999, 48.285956122000016], [-122.38182532499994, 48.2968203800001], [-122.3858536449999, 48.303778387000165], [-122.39175370999993, 48.3097598330001], [-122.42536373599987, 48.33022695500014], [-122.45514889199987, 48.342474677000126], [-122.47862708199993, 48.3598086610001], [-122.49136308499989, 48.36505768400011], [-122.50621497299994, 48.36798737200013], [-122.52269446499993, 48.36896393400011], [-122.53376217399996, 48.37466054900008], [-122.5535375639999, 48.40131256700002], [-122.56704667899987, 48.40989817900012], [-122.56704667899987, 48.417385158], [-122.55207271999984, 48.42788320500014], [-122.55894934799994, 48.434027411000045], [-122.57420813699991, 48.43707916900004], [-122.58446204299993, 48.43781159100007], [-122.59170488199996, 48.43406810100004], [-122.60777747299994, 48.41600169500012], [-122.61554928299985, 48.40989817900012], [-122.63036048099991, 48.40534088700008], [-122.64659583199996, 48.40375397300005], [-122.66177324099995, 48.40623607000006], [-122.67357337099992, 48.41364166900016], [-122.68346106699993, 48.43016185100012], [-122.67857825399996, 48.43886953300003], [-122.66877193899984, 48.44525788000013], [-122.66331946499989, 48.45490143400002], [-122.6693416009999, 48.47280508000017], [-122.68293209499986, 48.4791934270001], [-122.69701087099989, 48.481350002], [-122.70490475199996, 48.486273505000156], [-122.70238196499986, 48.49799225500004], [-122.68907630099993, 48.49982330900002], [-122.67247473899997, 48.49896881700002], [-122.65990149599989, 48.50299713700008], [-122.6330460279999, 48.51626211100012], [-122.61327063699987, 48.50031159100001], [-122.59703528599992, 48.47455475500007], [-122.5807185539999, 48.458319403000104], [-122.58088131399987, 48.48452383000006], [-122.56834876199987, 48.48948802300009], [-122.55101477799988, 48.481512762000136], [-122.5272110669999, 48.460353908000144], [-122.51427161399988, 48.45319245000002], [-122.50059973899994, 48.45042552300015], [-122.48888098899995, 48.45490143400002], [-122.48082434799993, 48.46409739800009], [-122.48013261599989, 48.47028229400016], [-122.48281816299996, 48.4765078800001], [-122.48517818899991, 48.486273505000156], [-122.48839270699996, 48.51292552300009], [-122.49425208199992, 48.52936432500016], [-122.50352942599996, 48.543646551999984], [-122.51585852799991, 48.557603257000125], [-122.55601966099992, 48.57660553600013], [-122.56700598899988, 48.58535390800003], [-122.5466202459999, 48.58869049700013], [-122.52513587099988, 48.58319733300013], [-122.48534094999988, 48.55980052300012], [-122.46808834499987, 48.55451080900016], [-122.44762122299991, 48.562160549], [-122.4402970039999, 48.580715236], [-122.44432532499988, 48.603257554000066], [-122.45787512899993, 48.62343984600011], [-122.46646074099995, 48.62872955900016], [-122.4753311839999, 48.63125234600011], [-122.48412024599986, 48.63475169500009], [-122.4925837879999, 48.643255927000126], [-122.49714107999985, 48.65355052300012], [-122.50304114499988, 48.679632880000014], [-122.5025528639999, 48.68488190300019], [-122.52513587099988, 48.692287502000084], [-122.5211075509999, 48.7090518250001], [-122.49885006399985, 48.739488023000064], [-122.5086156889999, 48.75568268400011], [-122.52993730399996, 48.76862213700011], [-122.55467688699993, 48.77732982], [-122.57453365799985, 48.78046295800007], [-122.59361731699993, 48.77411530200004], [-122.60977128799989, 48.75861237200013], [-122.63971920499986, 48.722398179000095], [-122.65038001199989, 48.71816640800009], [-122.66014563699993, 48.72256094000008], [-122.66734778599995, 48.73187897300002], [-122.67015540299991, 48.742905991999976], [-122.66690019399995, 48.74811432500016], [-122.6529027989999, 48.758286851], [-122.64964758999986, 48.76365794500006], [-122.65819251199989, 48.77732982], [-122.6769913399999, 48.79344310099998], [-122.69595292899993, 48.80076732000006], [-122.70490475199996, 48.78790924700013], [-122.70059160099987, 48.81216054900014], [-122.70384680899991, 48.82737864800012], [-122.71422278599991, 48.83820221600001], [-122.75755774599989, 48.86424388200007], [-122.76821855399992, 48.874009507000125], [-122.77253170499992, 48.88654205900011], [-122.76838131399988, 48.897406317000105], [-122.75914466099991, 48.90595123900013], [-122.74990800699995, 48.9125430360001], [-122.74583899599989, 48.9176699890001], [-122.75885982999988, 48.935939846], [-122.80809485599988, 48.934515692000105], [-122.81354732999984, 48.95180898600012], [-122.80101477799992, 48.96230703300009], [-122.77749589799987, 48.9647891300001], [-122.7315567699999, 48.95921458500001], [-122.7411189439999, 48.97679271000004], [-122.75300045499985, 48.9924990910001], [-122.75951087099993, 49.0011660830001], [-122.78180904899996, 49.017320054000066], [-122.80357825399993, 49.01007721600013], [-122.82323157499988, 49.00698476800005], [-122.8530167309999, 49.01703522300011], [-122.87604732999986, 49.036525783000116], [-122.87559973899995, 49.05475495000019], [-122.86534583199993, 49.07005442900015], [-122.86774654899997, 49.08047109600014], [-122.88174394399994, 49.08649323100005], [-122.90660559799989, 49.08832428600013], [-122.93004309799996, 49.08685944200016], [-122.95128333199995, 49.082953192000076], [-123.03282630099997, 49.050604559000135], [-123.04857337099993, 49.03522370000002], [-123.04405676999988, 49.017279364000075], [-123.03205318899987, 48.99518463700008], [-123.0353083979999, 48.9924990910001], [-123.0452774729999, 48.98436107000009], [-123.0884903639999, 48.972235419000185], [-123.0893448559999, 48.987982489000046], [-123.09048417899993, 48.9924990910001], [-123.09373938699989, 49.00511302300009], [-123.10049394399992, 49.02118561400016], [-123.10830644399991, 49.03367747599998], [-123.12462317599993, 49.046779690000136], [-123.13878333199995, 49.05377838700002], [-123.14297441299989, 49.06093984600014], [-123.12946529899992, 49.07465241100007], [-123.07567298099987, 49.10565827000002], [-123.05426998599991, 49.12323639500005], [-123.04067949099995, 49.15102773600012], [-123.0811254549999, 49.128363348000136], [-123.12340247299991, 49.115871486000145], [-123.16714433499989, 49.11562734600011], [-123.21198482999992, 49.129950262000165], [-123.21198482999992, 49.136704820000034], [-123.20010331899996, 49.1485049500001], [-123.2047013009999, 49.18984609600011], [-123.19831295499988, 49.20563385600008], [-123.17979895699996, 49.209865627000084], [-123.15697180899986, 49.205308335000154], [-123.13760331899992, 49.19570547100008], [-123.1433813139999, 49.20746491100013], [-123.1753637359999, 49.22370026200019], [-123.21100826699985, 49.2366397160001], [-123.23591061099988, 49.24998607000012], [-123.24689693899984, 49.27464427300009], [-123.21825110599987, 49.27920156500005], [-123.17528235599991, 49.276597398000064], [-123.14305579299987, 49.280096747000044], [-123.1619360019999, 49.299994208000044], [-123.15489661399992, 49.30853913000007], [-123.13853919199991, 49.30902741100013], [-123.12946529899992, 49.3049177100001], [-123.12336178299984, 49.294378973000136], [-123.10863196499993, 49.28876373900013], [-123.09044348899994, 49.28864166900016], [-123.0742081369999, 49.294378973000136], [-123.06737219999988, 49.2875430360001], [-123.05654863199989, 49.29425690300016], [-123.03941809799994, 49.295884507000096], [-123.02098548099991, 49.29340241100007], [-123.00649980399987, 49.2875430360001], [-122.96084550699993, 49.28188711100003], [-122.92194576699984, 49.299546617000146], [-122.89248613199995, 49.333685614000046], [-122.86266028599995, 49.406439520000106], [-122.8577367829999, 49.42352936400013], [-122.85570227799987, 49.441799221000025], [-122.8598526679999, 49.44985586100006], [-122.86904863199989, 49.45636627800013], [-122.87828528599994, 49.45734284100013], [-122.8823949859999, 49.448635158000144], [-122.87962805899993, 49.4171817080001], [-122.8823949859999, 49.4042422550001], [-122.93814042899989, 49.32583242400014], [-123.02065995999989, 49.306830145000134], [-123.21198482999992, 49.342759507000125], [-123.22842363199992, 49.34345123899999], [-123.27000891799989, 49.33535390800006], [-123.27660071499987, 49.35154857000009], [-123.28355872299994, 49.363348700000074], [-123.29393469999985, 49.370103257000096], [-123.28384355399989, 49.38255442900004], [-123.25645911399992, 49.39655182500019], [-123.24547278599997, 49.41107819200013], [-123.24107825399989, 49.426092841000155], [-123.24010169199991, 49.441555080000086], [-123.25218665299991, 49.51178620000013], [-123.25112870999995, 49.522853908000144], [-123.24010169199991, 49.55499909100013], [-123.22581946499992, 49.58470286700006], [-123.21816972599989, 49.59601471600013], [-123.22183183499993, 49.59690989800012], [-123.22472083199996, 49.596991278000104], [-123.22618567599993, 49.59853750200014], [-123.22565670499986, 49.603461005000014], [-123.2150772779999, 49.60993073100002], [-123.2068985669999, 49.62156810100012], [-123.20466061099991, 49.63580963700011], [-123.21198482999992, 49.65005117400011], [-123.16999264199984, 49.67499420800016], [-123.15396074099993, 49.6929385440001], [-123.1710098949999, 49.70526764500005], [-123.18814042899993, 49.69159577000002], [-123.20278886599993, 49.682277736000145], [-123.2150772779999, 49.67796458500007], [-123.22842363199992, 49.67487213700008], [-123.23924719999991, 49.66742584800011], [-123.24742591099991, 49.65827057500013], [-123.25291907499985, 49.65005117400011], [-123.24657141799992, 49.62555573100019], [-123.24547278599997, 49.61310455900008], [-123.24860592399993, 49.597805080000114], [-123.25641842399993, 49.593003648000035], [-123.26659094999988, 49.591376044000015], [-123.2872615229999, 49.58087799700013], [-123.31582597599989, 49.582586981000134], [-123.32803300699996, 49.58177317900012], [-123.33568274599989, 49.57664622600012], [-123.34898841099991, 49.56012604400004], [-123.35533606699994, 49.55508047100011], [-123.38060462099989, 49.55857982], [-123.39659583199989, 49.55829498900016], [-123.40379798099993, 49.551662502000084], [-123.40973873599985, 49.547756252000084], [-123.43822180899987, 49.53681061400013], [-123.44815019399995, 49.53091054900008], [-123.4894913399999, 49.51504140800017], [-123.50267493399994, 49.5054385440001], [-123.48570716099997, 49.493597723000136], [-123.49132239499997, 49.47308991099999], [-123.47321529899996, 49.434515692000105], [-123.48228919199995, 49.414211330000114], [-123.4998673169999, 49.39988841400012], [-123.51618404899992, 49.39166901200011], [-123.5335587229999, 49.388495184000135], [-123.55459550699993, 49.389960028000104], [-123.78111731699991, 49.465480861000145], [-123.80671139199988, 49.47052643400016], [-123.86522376199994, 49.473334052000126], [-123.88556881399984, 49.47728099200012], [-123.9034317699999, 49.486151434000135], [-123.9103897779999, 49.493801174], [-123.9142146479999, 49.50088125200014], [-123.91954505099996, 49.507473049000026], [-123.93077551999997, 49.513495184000135], [-123.94627844999988, 49.51756419500009], [-123.9557185539999, 49.518459377000084], [-123.96377519399994, 49.52114492400014], [-123.97545325399993, 49.53091054900008], [-123.99315344999994, 49.55023834800011], [-124.02696692599991, 49.603461005000014], [-124.03429114499991, 49.611151434000135], [-124.05313066299995, 49.62278880400004], [-124.0611059239999, 49.63080475500007], [-124.06607011599995, 49.64402903900012], [-124.06798255099991, 49.66233958500007], [-124.06383216099988, 49.67845286700006], [-124.05113684799991, 49.685451565000136], [-124.0443009109999, 49.69122955900019], [-124.02920488199989, 49.72044505400004], [-124.0201309889999, 49.732611395000106], [-124.00609290299994, 49.740790106000134], [-123.99006100199995, 49.74506256700013], [-123.95494544199988, 49.7468936220001], [-123.9392797519999, 49.74359772300008], [-123.93211829299986, 49.73566315300002], [-123.92788652299994, 49.72557200700015], [-123.92080644399988, 49.715806382000096], [-123.8692520819999, 49.67177969000011], [-123.84064693899984, 49.63812897299999], [-123.8351130849999, 49.63393789300014], [-123.82725989499993, 49.59520091400012], [-123.82835852799988, 49.58177317900012], [-123.81973222599987, 49.56704336100012], [-123.80508378799995, 49.52863190300013], [-123.79417883999989, 49.513495184000135], [-123.77708899599993, 49.50531647300011], [-123.76716061099984, 49.5131696640002], [-123.76032467399992, 49.52802155200007], [-123.7525935539999, 49.54075755400012], [-123.7634171209999, 49.5568708350001], [-123.7716365229999, 49.575425523], [-123.77228756399985, 49.59393952000002], [-123.76008053299988, 49.60968659100007], [-123.75096594999988, 49.612738348000164], [-123.7184952459999, 49.61652252800016], [-123.70889238199992, 49.62278880400004], [-123.70181230399996, 49.62946198100019], [-123.69367428299985, 49.63483307500013], [-123.63801021999993, 49.641099351], [-123.58975175699989, 49.653631903000104], [-123.55020097599994, 49.67487213700008], [-123.53351803299991, 49.70526764500005], [-123.6644587879999, 49.65615469000002], [-123.7945450509999, 49.64402903900012], [-123.80785071499992, 49.64691803600013], [-123.81208248599985, 49.66714101800008], [-123.82323157499987, 49.68317291900016], [-123.88361568899988, 49.73940664300005], [-123.91836503799993, 49.75625234600005], [-123.92760169199991, 49.76361725500013], [-123.93370520699989, 49.7832705750001], [-123.92267818899985, 49.799627997000016], [-123.88975989499995, 49.82880280200007], [-123.8818253249999, 49.847357489000075], [-123.88048255099991, 49.86542389499999], [-123.88361568899988, 49.90110911700003], [-123.89061438699987, 49.9214541690001], [-123.90754146999986, 49.93097565300002], [-123.92780514199987, 49.93646881700005], [-123.94497636599989, 49.9448916690001], [-123.9578751289999, 49.967108466000155], [-123.95360266799989, 49.98969147300011], [-123.93561764199985, 50.007310289000145], [-123.89574133999989, 50.01752350500007], [-123.87808183499996, 50.03119538000013], [-123.86587480399989, 50.03424713700002], [-123.8199763659999, 50.03815338700011], [-123.80785071499992, 50.04108307500013], [-123.77196204299992, 50.07294342700007], [-123.75454667899994, 50.09373607000015], [-123.75633704299993, 50.10317617400014], [-123.77741451699987, 50.11163971600001], [-123.81480872299991, 50.14915599200012], [-123.82835852799988, 50.15839264499999], [-123.88756262899996, 50.18183014500016], [-123.9289444649999, 50.190497137000136], [-123.97061113199995, 50.2144229190001], [-123.99347896999987, 50.219794012000165], [-123.98444576699985, 50.206000067000076], [-123.97223873599988, 50.19269440300005], [-123.95848548099987, 50.181057033000144], [-123.94497636599989, 50.172064520000106], [-123.92471269399988, 50.16412995000016], [-123.88145911399988, 50.153753973000136], [-123.86245683499989, 50.144110419000185], [-123.85802161399991, 50.1393496770001], [-123.85057532499992, 50.12669505400012], [-123.84569251199987, 50.120510158000144], [-123.8371475899999, 50.11595286700009], [-123.81334387899994, 50.107814846], [-123.80785071499992, 50.10317617400014], [-123.81468665299994, 50.09031810100012], [-123.83315995999996, 50.07550690300016], [-123.8692520819999, 50.05475495000016], [-123.98110917899992, 50.02138906500008], [-123.99315344999994, 50.010809637000136], [-123.99962317599993, 49.993312893], [-124.00007076699984, 49.973618882000125], [-123.99624589799991, 49.95302969000011], [-123.9890030589999, 49.93378327000016], [-123.97911536399988, 49.91815827], [-123.96190344999987, 49.90399811400016], [-123.92609615799986, 49.88617584799999], [-123.91087805899988, 49.869777736000174], [-123.91787675699995, 49.8613955750001], [-123.92992102799987, 49.838446356000134], [-123.93822180899986, 49.82880280200007], [-123.9634496739999, 49.816717841000155], [-123.96548417899993, 49.815130927000126], [-123.97069251199993, 49.812811591000155], [-123.97398841099997, 49.81069570500014], [-123.9781794909999, 49.80902741100013], [-123.9859513009999, 49.8082949890001], [-124.00112870999989, 49.81183502800016], [-124.00853430899988, 49.820624091000155], [-124.01329505099997, 49.84243398600009], [-124.01349850199992, 49.84813060100009], [-124.01170813699994, 49.85089752800005], [-124.0106501939999, 49.85468170800007], [-124.01329505099997, 49.86359284100001], [-124.0170792309999, 49.868638414000145], [-124.0291235019999, 49.878241278000104], [-124.03441321499989, 49.88344961100012], [-124.02562415299992, 49.89398834800008], [-124.02041581899992, 49.90778229400016], [-124.02301998599992, 49.91986725500007], [-124.03746497299989, 49.9249942080001], [-124.04523678299988, 49.91742584800005], [-124.07477779899995, 49.869777736000174], [-124.06407630099991, 49.86359284100001], [-124.05272376199986, 49.85224030200004], [-124.0481664699999, 49.841131903000104], [-124.0576879549999, 49.83624909100004], [-124.07298743399987, 49.83494700700004], [-124.0849503249999, 49.83051178600007], [-124.08922278599991, 49.821926174000055], [-124.08161373599987, 49.8082949890001], [-124.10216223899991, 49.79816315300013], [-124.14781653599994, 49.784369208000044], [-124.17096920499989, 49.78099192900012], [-124.24966386599988, 49.78099192900012], [-124.27399654899993, 49.77415599200009], [-124.26748613199995, 49.75165436400002], [-124.28302975199986, 49.74656810100009], [-124.30426998599984, 49.75267161700009], [-124.32721920499984, 49.77435944200016], [-124.35505123599988, 49.774481512000136], [-124.40371660099991, 49.767320054000095], [-124.43028723899997, 49.77155182500002], [-124.47760982999992, 49.79035065300016], [-124.51325436099988, 49.79751211100009], [-124.52082271999991, 49.804836330000114], [-124.52554277299993, 49.814846096], [-124.52847245999995, 49.83771393400019], [-124.53221594999988, 49.844387111000145], [-124.5831192699999, 49.88247304900014], [-124.60553951699991, 49.893255927000126], [-124.62686113199989, 49.89765045800013], [-124.63491777299991, 49.902004299000026], [-124.64972896999988, 49.92072174700019], [-124.66100012899997, 49.9249942080001], [-124.67544511599993, 49.92715078300009], [-124.7321671209999, 49.9542910830001], [-124.76439368399986, 49.97736237200016], [-124.8220922519999, 50.040106512000136], [-124.82892818899991, 50.05475495000016], [-124.8203832669999, 50.0714785830001], [-124.8009333979999, 50.062201239000046], [-124.77916419199993, 50.04413483300013], [-124.76341712099988, 50.03424713700002], [-124.74242102799994, 50.02777741100002], [-124.70376542899989, 49.99689362200016], [-124.68488521999986, 49.98647695500017], [-124.70189368399991, 50.023179429000066], [-124.70445716099992, 50.04096100500007], [-124.6885880199999, 50.04852936400002], [-124.68301347599989, 50.052476304000095], [-124.6769099599999, 50.061916408000116], [-124.67251542899992, 50.073187567000105], [-124.67186438699987, 50.0827090520001], [-124.67739824099989, 50.08885325700007], [-124.70539303299991, 50.10317617400014], [-124.6933487619999, 50.114406643000166], [-124.67642167899992, 50.11957428600007], [-124.6656388009999, 50.12677643400011], [-124.67186438699987, 50.144110419000185], [-124.64883378799989, 50.152573960000126], [-124.62832597599994, 50.169378973000136], [-124.61750240799985, 50.18891022300011], [-124.62340247299989, 50.20555247599998], [-124.60521399599989, 50.23285553600013], [-124.60293535099991, 50.24030182500013], [-124.60789954299987, 50.25063711100012], [-124.6262100899999, 50.2659365910001], [-124.6302384109999, 50.277899481000134], [-124.63988196499987, 50.29385000200014], [-124.66218014199991, 50.304185289000145], [-124.68732662699989, 50.3125674500001], [-124.70539303299991, 50.32225169499998], [-124.71344967399993, 50.33136627800013], [-124.71153723899988, 50.333726304000095], [-124.7032771479999, 50.33539459800011], [-124.67747962099988, 50.35468170800016], [-124.67332923099993, 50.361029364000075], [-124.67186438699987, 50.373765367000146], [-124.65982011599995, 50.3920759140002], [-124.63182532499992, 50.401800848000136], [-124.59972083199996, 50.40521881700016], [-124.57567298099993, 50.40477122599998], [-124.5459692049999, 50.397040106000134], [-124.53404700399996, 50.397365627000084], [-124.52379309799993, 50.40192291900013], [-124.50625566299989, 50.41608307500013], [-124.49620520699992, 50.41909414300005], [-124.47655188699987, 50.421779690000136], [-124.42926998599991, 50.43724192900015], [-124.41120357999989, 50.44574616100007], [-124.35676021999988, 50.486151434000135], [-124.3485001289999, 50.49725983300007], [-124.35899817599996, 50.50926341400017], [-124.38296464799993, 50.49787018400011], [-124.42479407499985, 50.466253973000136], [-124.50426184799994, 50.43846263199998], [-124.58926347599989, 50.42527903900012], [-124.67198645699993, 50.43085358300013], [-124.68488521999986, 50.42218659100004], [-124.69351152299996, 50.40224844000005], [-124.73151607999986, 50.371039129999986], [-124.74010169199997, 50.36009349200009], [-124.7499080069999, 50.352118231000134], [-124.80842037699986, 50.32225169499998], [-124.83014889199984, 50.31761302300012], [-124.85220292899993, 50.320461330000086], [-124.87466386599993, 50.32562897299999], [-124.89777584499988, 50.32843659100013], [-124.9204, 50.3271667596654], [-124.9204, 50.55003929811725], [-124.89098059799996, 50.5549990910001], [-124.88581295499986, 50.55931224200009], [-124.8731176419999, 50.576361395000134], [-124.86986243399994, 50.58295319200013], [-124.87043209499991, 50.5890567080001], [-124.87425696499993, 50.60781484600008], [-124.87328040299985, 50.613674221000025], [-124.87202689034267, 50.616299999999995], [-120.94120000000001, 50.616299999999995], [-120.94120000000001, 47.479000000000006], [-122.36670654264853, 47.479000000000006], [-122.36668860599994, 47.485337632000096], [-122.37022864499991, 47.497137762000165], [-122.38141842399993, 47.510199286000045], [-122.3884171209999, 47.52081940300016], [-122.40754146999988, 47.56606679900011], [-122.40904700399993, 47.57493724200006], [-122.40371660099987, 47.58197663000013]]]}}]}